id,ident,type,name,latitude_deg,longitude_deg,elevation_ft,continent,iso_country,iso_region,municipality,scheduled_service,gps_code,iata_code,local_code,home_link,wikipedia_link,keywords
35333,AR-0001,small_airport,Cullen Airport,-52.88574,-68.414956,132,SA,AR,AR-V,Cullen,no,,,,,,
35334,AR-0002,small_airport,Estancia Los Cerros Airport,-54.343,-67.837532,1914,SA,AR,AR-V,Estancia Los Cerros,no,,,,,,
35335,AR-0003,small_airport,Rio Bellavista Airport,-53.98270035,-68.52359772,201,SA,AR,AR-V,Rio Bellavista,no,,,,,,
35398,AR-0004,small_airport,Merlo Airport,-32.35820007,-65.01740265,796,SA,AR,AR-D,Merlo,yes,,,RLO,,,
35399,AR-0005,small_airport,Bragado Airport,-35.145811,-60.480294,196,SA,AR,AR-B,Bragado,no,SA2X,QRF,BRA,,,
333805,AR-0006,small_airport,Los Rulos Airport,-28.933839,-62.792315,305,SA,AR,AR-G,Casares,no,,,CCR,,,
35401,AR-0007,small_airport,Caleta Olivia Airport,-46.37428,-67.59409,37,SA,AR,AR-Z,Caleta Olivia,no,,CVI,CAO,,https://es.wikipedia.org/wiki/Aer%C3%B3dromo_Caleta_Olivia,
42798,AR-0008,small_airport,Aeroclub Chaco Airport,-27.6311,-59.1797,164,SA,AR,AR-H,Resistencia,no,,,RES,,https://en.wikipedia.org/wiki/Resistencia_Aeroclub,
35403,AR-0009,small_airport,Charata Airport,-27.2164,-61.2103,318,SA,AR,AR-H,Charata,no,,CNT,CHA,,https://en.wikipedia.org/wiki/Charata_Airport,
35404,AR-0010,small_airport,General Villegas Airport,-34.995728,-62.999725,383,SA,AR,AR-B,General Villegas,no,,VGS,GAS,,https://en.wikipedia.org/wiki/General_Villegas_Airport,
35405,AR-0011,small_airport,Los Menucos Airport,-40.817699,-68.074699,2571,SA,AR,AR-R,Los Menucos,no,,LMD,MCO,,https://en.wikipedia.org/wiki/Los_Menucos_Airport,
42799,AR-0012,small_airport,Aerofumigaciones Don Alejandro Airport,-33.306157,-60.656387,170,SA,AR,AR-S,Coronel Bogado,no,,,OGB,,,
42800,AR-0013,small_airport,Agro Servicio Yoris Airport,-26.583055,-64.529724,1043,SA,AR,AR-T,Gobernador Garmendia,no,,,GYT,http://www.asysrl.com.ar/,,
42801,AR-0014,small_airport,Agroaire Airport,-27.4978,-61.6586,377,SA,AR,AR-H,Gancedo,no,,,GAI,,,
35409,AR-0015,closed,Saenz Peña Airport,-26.81579971,-60.44829941,20,SA,AR,AR-H,Presidencia Roque Sáenz Peña,no,,,,,,"SZQ, SZQ"
35410,AR-0016,closed,(Old) Antoine De Saint Exupery Airport,-40.74010086,-64.98049927,85,SA,AR,AR-R,San Antonio Oeste,no,,,,,,"OES, OES"
35412,AR-0017,small_airport,Valcheta Airport,-40.700001,-66.150002,629,SA,AR,AR-R,Valcheta,no,,VCF,VAL,,https://en.wikipedia.org/wiki/Valcheta_Airport,
35413,AR-0018,small_airport,Villa Mercedes Airport,-33.640858,-65.420074,1689,SA,AR,AR-D,Villa Mercedes,no,,,CED,,,
38694,AR-0019,small_airport,13 De Diciembre Airport,-45.90417,-67.559295,170,SA,AR,AR-U,Comodoro Rivadavia,no,,,ICO,,,
38695,AR-0020,heliport,Abel Monteverde Heliport,-32.9208,-62.4663,2646,SA,AR,AR-X,Monte Buey,no,,,HMB,,,
38696,AR-0021,small_airport,Acindar Airport,-33.2647,-60.2842,82,SA,AR,AR-S,Villa Constitución,no,,,ION,,,
38697,AR-0022,small_airport,Aeroboero Airport,-30.7286,-62.0078,314,SA,AR,AR-X,Morteros,no,,,BOE,,,
38698,AR-0023,small_airport,Bahia Blanca Aeroclub Airport,-38.672059,-62.352846,49,SA,AR,AR-B,Bahia Blanca,no,SA92,,BHB,,,
38699,AR-0024,small_airport,Balcarce Aeroclub Airport,-37.9156,-58.3442,393,SA,AR,AR-B,Balcarce,no,SA20,,BAL,,https://es.wikipedia.org/wiki/Aer%C3%B3dromo_de_Balcarce,
38700,AR-0025,small_airport,Cipoletti Aeroclub Airport,-38.89310074,-67.98860168,885,SA,AR,AR-R,Cipoletti,no,SAHI,,CIP,,,
38701,AR-0026,small_airport,Olavarria Aeroclub Airport,-36.96440125,-60.2757988,606,SA,AR,AR-B,Olavarria,no,,,OLC,,,
38702,AR-0027,small_airport,Rauch Airport,-36.771887,-59.057837,308,SA,AR,AR-B,Rauch,no,,,RAU,,,"""Alas de Rauch"""
38703,AR-0028,small_airport,Tandil Aeroclub Airport,-37.265598,-59.0933,583,SA,AR,AR-B,Tandil,no,SA1B,,,,,
38704,AR-0029,small_airport,Aerotec Airport,-33.20694351,-68.49222565,2181,SA,AR,AR-M,Rivadavia,no,,,RAE,,,
38705,AR-0030,small_airport,Alagro Fumigaciones Airport,-32.8878,-60.8436,114,SA,AR,AR-S,Funes,no,,,UNE,,,
38706,AR-0031,small_airport,San Andrés de Giles Airport,-34.470347,-59.42461,167,SA,AR,AR-B,San Andrés de Giles,yes,,,GIL,,,
38707,AR-0032,small_airport,Alejandro Roca Airport,-33.34889984,-63.72999954,688,SA,AR,AR-X,Alejandro Roca,no,,,ALR,,,
38708,AR-0033,small_airport,Alfredo Sanchez Airport,-34.8011,-61.865,328,SA,AR,AR-B,General Pinto,no,,,SEZ,,,
38709,AR-0034,small_airport,Algarrobo/La Reforma Airport,-38.7306,-63.2869,219,SA,AR,AR-B,Bahia Blanca,no,,,BRF,,,
38710,AR-0035,small_airport,Allen Airport,-38.95809937,-67.8035965,951,SA,AR,AR-R,Allen,no,,,ALL,,,
38711,AR-0036,small_airport,Alta Gracia Airport,-31.65139961,-64.39389801,1748,SA,AR,AR-X,Alta Gracia,no,,,AGR,,,
38712,AR-0037,small_airport,Alumine Airport,-38.95029831,-71.04920197,3819,SA,AR,AR-Q,Alumine,no,,,ALU,,,
38713,AR-0038,small_airport,Alvear Airpark,-33.0467,-60.5969,85,SA,AR,AR-S,Rosario,no,,,SA43,http://www.aeroclubrosario.com/,,"Aeroparque Rosario, AVA"
38714,AR-0039,small_airport,Alvear Airport,-29.064722,-56.541111,226,SA,AR,AR-W,Corrientes,no,,,AVR,,,
38715,AR-0040,small_airport,Ameghino Airport,-34.845619,-62.482648,360,SA,AR,AR-B,Ameghino,no,SA49,,AMG,,,
38716,AR-0041,small_airport,América Airport,-35.5017,-62.99,347,SA,AR,AR-B,Rivadavia,no,SA52,,RVA,,,Rivadavia Gliding Club
38717,AR-0042,small_airport,Añatuya Airport,-28.47970009,-62.84579849,354,SA,AR,AR-G,Añatuya,no,,,UYA,,,
38718,AR-0043,small_airport,Andacollo Airport,-37.20333481,-70.6966629,3524,SA,AR,AR-Q,Andacollo,no,,,,,,
38719,AR-0044,small_airport,Anibal Brizi Airport,-31.4042,-60.8992,127,SA,AR,AR-S,Esperanza,no,,,EBF,,,
38720,AR-0045,heliport,Arelauquen Heliport,-41.1612,-71.3659,3099,SA,AR,AR-R,San Carlos De Bariloche,no,,,HBA,,,
38721,AR-0046,heliport,Aries Heliport,-52.6831,-68.0419,,SA,AR,AR-V,Santa Cruz,no,,,HES,,,
38722,AR-0047,small_airport,Arrecifes Aeroclub Airport,-34.079724,-60.046412,141,SA,AR,AR-B,Arrecifes,no,,,CIF,,,
38723,AR-0048,small_airport,Arribeños Airport,-34.2228,-61.3858,268,SA,AR,AR-B,Arribeños,no,SA55,,ARB,,,
38724,AR-0049,small_airport,Arroyito/Arcor Airport,-31.42219925,-63.00419998,485,SA,AR,AR-X,Arroyito/Arcor,no,,,ARY,,,
38725,AR-0050,heliport,Austral Heliport,-52.8936,-68.3553,127,SA,AR,AR-V,Rio Cullen,no,,,ULL,,,
38726,AR-0051,heliport,Buenos Aires City Oscar and Juan Gálvez Autodrome Heliport,-34.693929,-58.460403,16,SA,AR,AR-C,Buenos Aires,no,,,HAU,,,
38727,AR-0052,small_airport,Presidente Avellaneda Airport,-29.1061,-59.6569,147,SA,AR,AR-S,Avellaneda,no,,,AVL,,,
38728,AR-0053,small_airport,Ayacucho Airport,-37.1639,-58.4719,221,SA,AR,AR-B,Ayacucho,no,SA58,,AYA,,,
38729,AR-0054,heliport,Ayres De Pilar Heliport,-34.4375,-58.7983,45,SA,AR,AR-B,Pilar,no,,,HAP,,,
38730,AR-0055,heliport,Azcarate Irastorza Heliport,-35.1994,-63.6008,416,SA,AR,AR-L,Intendente Alvear,no,,,,,,
38731,AR-0056,small_airport,B&B Servicios Agropecuarios Airport,-32.1147,-61.6328,239,SA,AR,AR-S,Cañada Rosquin,no,,,CBB,,,
38732,AR-0057,heliport,B. Churruca Heliport,-34.6407,-58.4094,19,SA,AR,AR-C,Buenos Aires,no,,,HBC,,,
38733,AR-0058,small_airport,Baradero Airport,-33.821693,-59.492806,95,SA,AR,AR-B,Baradero,no,SA2R,,BDO,,https://es.wikipedia.org/wiki/Aer%C3%B3dromo_de_Baradero,
38734,AR-0059,small_airport,Barrancas Airport,-36.77560043,-69.85939789,3481,SA,AR,AR-M,Barrancas,no,,,,,,
38735,AR-0060,small_airport,Basavilbaso Airport,-32.3611,-58.8808,196,SA,AR,AR-E,Basavilbaso,no,,,BAS,,,
38736,AR-0061,small_airport,Batan Airport,-38.0117,-57.6775,203,SA,AR,AR-B,Mar Del Plata,no,SA4H,,MDB,,,
38737,AR-0062,small_airport,Escobar Aeroclub,-34.2986,-58.7989,13,SA,AR,AR-B,Belén de Escobar,no,,,LEN,,,
38738,AR-0063,small_airport,Bellamar Airport,-38.3858,-58.1336,42,SA,AR,AR-B,Miramar,no,,,MBL,,,
38739,AR-0064,closed,Benavidez Airport,-34.388054,-58.663887,13,SA,AR,AR-B,Benavidez,no,,,,,,"DEZ, DEZ"
38740,AR-0065,small_airport,Blondi Airport,-34.61333466,-61.02305603,262,SA,AR,AR-B,Junin,no,,,,,,
38741,AR-0066,small_airport,Gran Ancona Airport,-33.4383,-61.3017,318,SA,AR,AR-S,Bombal,no,,,BOM,,,
38742,AR-0067,small_airport,Bonetti Airport,-27.60416603,-55.86388779,462,SA,AR,AR-N,Posadas,no,,,PBO,,,
38743,AR-0068,small_airport,Pablo Sierra Aeroaplicaciones Airport,-30.9294,-62.0506,328,SA,AR,AR-X,Brinkman,no,,,BPS,,,
38744,AR-0069,heliport,Cabaña San Isidro Labrador Heliport,-34.3783,-58.7883,39,SA,AR,AR-B,Belén De Escobar,no,,,HCI,,,
38745,AR-0070,closed,Cabañas Airport,-32.978152,-58.522496,23,SA,AR,AR-E,Gualeguaychu,no,,,,,,"GLM, GLM"
38746,AR-0071,small_airport,Cabildo Airport,-38.49860001,-61.88439941,521,SA,AR,AR-B,Cabildo,no,,,CBD,,,
44745,AR-0072,heliport,Ituzaingo / Transener S.A. Heliport,-27.5601,-56.6568,233,SA,AR,AR-W,Ituzaingo,no,,,HIT,,https://en.wikipedia.org/wiki/Ituzaing%C3%B3_Yacireta_Airport,
38748,AR-0073,heliport,Cabo Vírgenes Heliport,-52.3278,-68.4092,180,SA,AR,AR-Z,Cabo Vírgenes,no,,,HCV,,,
38749,AR-0074,small_airport,Caleufu Airport,-40.39390182,-70.96330261,2323,SA,AR,AR-Q,Caleufu,no,,,,,,
38750,AR-0075,heliport,Campo De Vuelo Heliport,-31.3689,-64.2636,1515,SA,AR,AR-X,Cordoba,no,,,HMO,,,
38751,AR-0076,small_airport,Canals Airport,-33.5622,-62.8692,387,SA,AR,AR-X,Canals,no,,,CNS,,,
38752,AR-0077,small_airport,Cañada de Gomez Airport,-32.808687,-61.36574,268,SA,AR,AR-S,Cañada de Gomez,no,,,GOM,,,
38753,AR-0078,small_airport,Cañada Rosquin Airport,-32.0994,-61.5839,219,SA,AR,AR-S,Cañada Rosquin,no,,,SQI,,,
38754,AR-0079,small_airport,Cañuelas Airport,-35.1119,-58.7261,98,SA,AR,AR-B,Cañuelas,no,,,CNA,,,
38755,AR-0080,small_airport,Aeroclub Capitan Sarmiento,-34.1639,-59.7311,160,SA,AR,AR-B,Capitan Sarmiento,no,,,CTS,,,CTS
38756,AR-0081,small_airport,Vedia Aeroclub,-34.4817,-61.4903,291,SA,AR,AR-B,Vedia,no,,,VDA,,,
38757,AR-0082,small_airport,Carhue Airport,-37.1942,-62.7814,360,SA,AR,AR-B,Carhue,no,,,HUE,,,
38758,AR-0083,small_airport,Carlos Casares Airport,-35.6328,-61.3842,275,SA,AR,AR-B,Carlos Casares,no,,,CSR,,,
38759,AR-0084,small_airport,Las Ensenadas Airport,-31.45529938,-64.52639771,2394,SA,AR,AR-X,Carlos Paz,no,,,CPZ,,,
38760,AR-0085,small_airport,Carlos Tejedor Airport,-35.4256,-62.4697,308,SA,AR,AR-B,Carlos Tejedor,no,,,TEJ,,,
38761,AR-0086,small_airport,Carmen de Areco Airport,-34.4175,-59.8719,160,SA,AR,AR-B,Carmen de Areco,no,,,CNO,,,
38762,AR-0087,heliport,Casa De Gobierno Heliport,-31.4306,-64.1842,1420,SA,AR,AR-X,Cordoba,no,,,HGC,,,
38763,AR-0088,small_airport,Casilda Airport,-33.0617,-61.21,252,SA,AR,AR-S,Casilda,no,,,ILD,,,
38764,AR-0089,small_airport,Castelli Airport,-36.11000061,-57.86194611,33,SA,AR,AR-B,Castelli,no,,,,,,
38765,AR-0090,small_airport,Castelli Airport,-25.93083382,-60.62805557,364,SA,AR,AR-H,Chaco,no,,,,,,
38766,AR-0091,heliport,Centinela Heliport,-34.5822,-58.3744,42,SA,AR,AR-C,Buenos Aires,no,,,,,,
38767,AR-0092,heliport,Central Nuclear Heliport,-32.2294,-64.44,1738,SA,AR,AR-X,Embalse Rio Tercero,no,,,HCN,,,
38768,AR-0093,heliport,Centro Cívico Grand Bourg Heliport,-24.7806,-65.4514,4132,SA,AR,AR-A,Salta,no,,,HGB,,,
38769,AR-0094,small_airport,Cereales Anahi Ruca Airport,-35.67361069,-63.71805573,455,SA,AR,AR-L,General Pico,no,,,GPF,,,
38770,AR-0095,heliport,Cerro Chapelco Heliport,-40.1981,-71.3211,4281,SA,AR,AR-Q,San Martín De Los Andes,no,,,,,,
38771,AR-0096,small_airport,Chacabuco Airport,-34.6069,-60.4097,226,SA,AR,AR-B,Chacabuco,no,,,UCO,,,
38772,AR-0097,small_airport,Chacharramendi Airport,-37.340599,-65.646698,951,SA,AR,AR-L,Chacharramendi,no,,,CHR,,https://es.wikipedia.org/wiki/Aer%C3%B3dromo_de_Chacharramendi,
38773,AR-0098,small_airport,Chajari Airport,-30.7542,-58,173,SA,AR,AR-E,Chajari,no,,,CHJ,,,
38774,AR-0099,small_airport,Chañar Ladeado Airport,-33.3333,-62.0333,367,SA,AR,AR-S,Chañar Ladeado,no,,,CLD,,,
38775,AR-0100,small_airport,Chascomús Airport,-35.542621,-58.052137,32,SA,AR,AR-B,Chascomús,no,,,MUS,,https://es.wikipedia.org/wiki/Aer%C3%B3dromo_de_Chascom%C3%BAs,
38776,AR-0101,small_airport,Chivilcoy Airport,-34.9639,-60.0333,173,SA,AR,AR-B,Chivilcoy,no,SA4B,,CHY,,,
38777,AR-0102,small_airport,Cholila Airport,-42.484722,-71.460556,1883,SA,AR,AR-U,Cholila,no,,,CHO,,,
38778,AR-0103,small_airport,Cinco Saltos Airport,-38.801666,-68.037224,1171,SA,AR,AR-R,Cinco Saltos,no,,,,,,
38779,AR-0104,heliport,Citefa Heliport,-34.5575,-58.5056,55,SA,AR,AR-B,Villa Martelli,no,,,HVM,,,
38780,AR-0105,heliport,Ciudad Universitaria Heliport,-31.4406,-64.1894,1443,SA,AR,AR-X,Cordoba,no,,,HCU,,,
38781,AR-0106,heliport,Club Nautico San Isidro Heliport,-34.4614,-58.5003,6,SA,AR,AR-B,San Isidro,no,,,,,,
38782,AR-0107,small_airport,Colón Airport,-33.9231,-61.0461,295,SA,AR,AR-B,Colón,no,,,CON,,,Aeroclub Colón
38783,AR-0108,small_airport,Colon Airport,-32.2614,-58.1556,65,SA,AR,AR-E,Colon,no,,,CLN,,,
38784,AR-0109,heliport,Complejo Llao Llao Heliport,-41.0544,-71.5339,2542,SA,AR,AR-R,San Carlos De Bariloche,no,,,HLL,,,
38785,AR-0110,small_airport,Concepcion Del Uruguay Airport,-32.4519,-58.3058,121,SA,AR,AR-E,Concepcion Del Uruguay,no,,,CDU,,,
38786,AR-0111,small_airport,Concordia Aeroclub Airport,-31.3042,-58.0153,131,SA,AR,AR-E,Concordia,no,,,CRD,,,
38787,AR-0112,small_airport,Confluencia Airport,-36.77140045,-69.53859711,4964,SA,AR,AR-M,Confluencia,no,,,,,,
38788,AR-0113,small_airport,Coronel Dorrego Airport,-38.7411,-61.2561,393,SA,AR,AR-B,Coronel Dorrego,no,,,DOR,,,
38789,AR-0114,small_airport,Coronel Pringles Airport,-38.00666809,-61.33194351,810,SA,AR,AR-B,Coronel Pringles,no,SABP,,PRI,,,
38790,AR-0115,small_airport,Coronel Vidal Airport,-37.4689,-57.7669,85,SA,AR,AR-B,Coronel Vidal,no,,,VDL,,,
38791,AR-0116,small_airport,Corral De Bustos Airport,-33.2811,-62.1514,393,SA,AR,AR-X,Corral de Bustos,no,,,BTS,,,
38792,AR-0117,small_airport,Santa María Airport,-31.2861,-64.455299,2296,SA,AR,AR-X,Cosquin,no,,,CQN,,https://es.wikipedia.org/wiki/Aer%C3%B3dromo_Santa_Mar%C3%ADa_de_Punilla,
38793,AR-0118,small_airport,Cruz Alta Airport,-33.0078,-61.8369,318,SA,AR,AR-X,Cruz Alta,no,,,ALT,,,
38794,AR-0119,small_airport,Curuzu Cuatia Aeroclub Airport,-29.7789,-58.0958,262,SA,AR,AR-W,Curuzu Cuatia,no,,,CZU,,,
38795,AR-0120,heliport,D.P.A.O. Heliport,-34.9597,-57.8928,62,SA,AR,AR-B,La Plata,no,,,HLP,,,
38796,AR-0121,small_airport,Fumigaciones Rodriguez Airport,-36.590491,-61.774888,371,SA,AR,AR-B,Daireaux,no,SAE3,,DFR,,,
38797,AR-0122,small_airport,Darregueira Airport,-37.71279907,-63.16189957,649,SA,AR,AR-B,Darregueira,no,,,DAR,,,
38798,AR-0123,heliport,Darsena Sur Heliport,-34.6278,-58.3515,16,SA,AR,AR-C,Buenos Aires,no,,,HDA,,,
38799,AR-0124,small_airport,Dean Funes Airport,-30.37919998,-64.37969971,2259,SA,AR,AR-X,Dean Funes,no,,,FUN,,,
38800,AR-0125,small_airport,Diamante Airport,-32.0161,-60.5825,246,SA,AR,AR-E,Diamante,no,,,DTE,,,
38801,AR-0126,heliport,Dines (Doctor E. Escudero) Heliport,-34.57257,-58.40045,19,SA,AR,AR-C,Buenos Aires,no,,,HDI,,,
42802,AR-0127,small_airport,Agrocelta Servicios Aereos Airport,-33.8867,-60.8628,269,SA,AR,AR-B,Mariano H. Alfonzo,no,,,AGC,,,
38803,AR-0128,small_airport,Saavedra Airport,-37.750242,-62.33425,1040,SA,AR,AR-B,Saavedra,no,,,DRA,,,
38804,AR-0129,heliport,Ecodyma S.C.A. Heliport,-34.9408,-57.9919,45,SA,AR,AR-B,La Plata,no,,,HEC,,,
38805,AR-0130,small_airport,Eduardo Castex Airport,-35.8805542,-64.27388763,600,SA,AR,AR-L,Eduardo Castex,no,,,ECX,,,
38806,AR-0131,small_airport,El Alamito Airport,-37.27361298,-70.38972473,3576,SA,AR,AR-Q,El Alamito,no,,,,,,
38807,AR-0132,small_airport,Establecimiento El Araza Airport,-36.7756,-57.6414,305,SA,AR,AR-B,Maipu,no,,,HZA,,,
38808,AR-0133,heliport,El Capricho Heliport,-34.2325,-59.3158,98,SA,AR,AR-B,Chenaut,no,,,HCO,,,
38809,AR-0134,small_airport,El Corcovado Airport,-43.53359985,-71.48470306,1968,SA,AR,AR-U,El Corcovado - Esquel,no,,,,,,
38810,AR-0135,small_airport,El Gaucho Airport,-32.6294,-61.5444,344,SA,AR,AR-S,Las Parejas,no,,,EGO,,,
38811,AR-0136,balloonport,El Manantial Airport,-35.1943,-58.3594,49,SA,AR,AR-B,Coronel Brandsen,no,,,EML,,,
38812,AR-0137,small_airport,El Pajaro Airport,-34.823537,-58.316307,52,SA,AR,AR-B,Florencio Varela,no,,,FVA,https://www.facebook.com/pages/Aerodromo-El-Pajaro/487105338046291,,
38813,AR-0138,small_airport,El Pampero Airport,-36.59280014,-64.18669891,583,SA,AR,AR-L,Santa Rosa,no,,,ELP,,,
38814,AR-0139,small_airport,El Trebol Airport,-32.2153,-61.7161,301,SA,AR,AR-S,El Trebol,no,SAFT,,ETB,,,
38815,AR-0140,closed,Elizalde Airport,-34.975122,-57.963396,22,SA,AR,AR-B,La Plata,no,,,,,,"ELZ, ELZ"
38816,AR-0141,small_airport,Esperanza Airport,-31.4736,-60.8447,124,SA,AR,AR-S,Esperanza,no,,,EPZ,,,
38817,AR-0142,small_airport,Esquina Airport,-30.0489,-59.5353,127,SA,AR,AR-W,Esquina,no,,,ESN,,,
38818,AR-0143,small_airport,Estancia Don Roberto Airport,-34.00139999,-65.36689758,1430,SA,AR,AR-D,Villa Mercedes,no,,,ERT,,,
38819,AR-0144,heliport,Estancia Haychol Heliport,-38.6481,-70.6775,3447,SA,AR,AR-Q,Las Lajas,no,,,HHL,,,
38820,AR-0145,heliport,Estancia La Candelaria Heliport,-40.0442,-71.3664,2997,SA,AR,AR-Q,San Martin De Los Andes,no,,,HCD,,,
38821,AR-0146,heliport,Estancia La Chacota Heliport,-35.9133,-62.6417,295,SA,AR,AR-B,Trenque Lauquen,no,,,HTL,,,
38822,AR-0147,small_airport,Estancia La Choza Airport,-30.5389,-58.2928,236,SA,AR,AR-E,Chajari,no,,,CHC,,,
38823,AR-0148,small_airport,Estancia La Laurita Airport,-44.7761116,-70.19638824,1834,SA,AR,AR-U,Alto Rio Senguerr,no,,,,,,
38824,AR-0149,small_airport,Estancia Llamuco Airport,-38.79944611,-70.4347229,3924,SA,AR,AR-Q,Llamuco,no,,,,,,
38825,AR-0150,small_airport,Estancia Los Cardos Airport,-37.7356,-58.0342,393,SA,AR,AR-B,Balcarce,no,SA2Q,,BLC,,,
38826,AR-0151,small_airport,Estancia Nueva Lubecka Airport,-44.44194412,-70.4422226,2021,SA,AR,AR-U,Jose de San Martin,no,,,,,,
38827,AR-0152,heliport,Estancia Palitue Heliport,-39.8528,-71.0464,2817,SA,AR,AR-Q,Junin De Los Andes,no,,,HJN,,,
38828,AR-0153,small_airport,Estancia San Juan Airport,-29.6028,-58.0281,268,SA,AR,AR-W,Curuzu Cuatia,no,,,HSJ,,,
38829,AR-0154,small_airport,Estancia San Ramón Airport,-50.303495,-69.926057,1226,SA,AR,AR-Z,Santa Cruz,no,,,HSR,,,
38830,AR-0155,small_airport,Estancia Santa Ana Airport,-51.680841,-71.9652,665,SA,AR,AR-Z,El Turbio,no,,,HTS,,,
38831,AR-0156,heliport,Estancia Santa Isabel Heliport,-39.8847,-70.5136,3116,SA,AR,AR-Q,Catan Lil,no,,,HCL,,,
38832,AR-0157,small_airport,Estindher Airport,-33.0931015,-64.42919922,1531,SA,AR,AR-X,Rio Cuarto,no,,,RIE,,,
38833,AR-0158,small_airport,Ezpeleta Airport,-34.7464,-58.2033,9,SA,AR,AR-B,Ezpeleta,no,,,EZP,,,"SA15, Aeroclub Rio de la Plata"
38834,AR-0159,heliport,Finca Las Costas Heliport,-24.7703,-65.4956,4300,SA,AR,AR-A,Salta,no,,,HFC,,,
38835,AR-0160,small_airport,Firmat Aeroclub Airport,-33.4289,-61.5108,344,SA,AR,AR-S,Firmat,no,,,FAE,,,
38836,AR-0161,small_airport,Aeródromo sede del Aeroclub Formosa,-26.3014,-58.2983,229,SA,AR,AR-P,Formosa,no,,,FOR,,,
38837,AR-0162,small_airport,Fortín De Gainza Airport,-34.5494,-63.1225,426,SA,AR,AR-B,Santa Regina,no,,,SRE,,,
38838,AR-0163,heliport,Fuerza Aérea(Edificio Cóndor) Heliport,-34.5858,-58.3681,19,SA,AR,AR-C,Buenos Aires,no,,,HFA,,,
38839,AR-0164,small_airport,Fumigaciones Stadler Airport,-32.5786,-60.9119,121,SA,AR,AR-S,Serodino,no,,,SER,,,
38840,AR-0165,small_airport,Galvez Airport,-32.0322,-61.1758,173,SA,AR,AR-S,Galvez,no,,,VEZ,,,
38841,AR-0166,small_airport,General Alvear Aeroclub Airport,-34.97309875,-67.72360229,1528,SA,AR,AR-M,General Alvear,no,,,GVA,,,
38842,AR-0167,small_airport,General Belgrano Airport,-35.7519,-58.4633,39,SA,AR,AR-B,General Belgrano,no,,,GBE,,,
38843,AR-0168,small_airport,General Deheza Airport,-32.74530029,-63.79579926,898,SA,AR,AR-X,General Deheza,no,,,GDH,,,
38844,AR-0169,small_airport,General La Madrid Airport,-37.226261,-61.279101,560,SA,AR,AR-B,General La Madrid,no,SA6B,,LAM,,,
38845,AR-0170,small_airport,General Las Heras Aeroclub,-34.9206,-58.9164,114,SA,AR,AR-B,General Las Heras,no,,,GLH,,,
38846,AR-0171,small_airport,General Levalle Airport,-34.00388718,-63.93083191,614,SA,AR,AR-X,General Levalle,no,,,LEV,,,
38847,AR-0172,small_airport,General Madariaga Airport,-37.0392,-57.1372,22,SA,AR,AR-B,General Madariaga,no,,,MAD,,,
38848,AR-0173,small_airport,General Pìnedo Airport,-27.3394,-61.2744,298,SA,AR,AR-H,General Pìnedo,no,,,GPO,,,
38849,AR-0174,small_airport,General Pinto Airport,-34.7861,-61.9142,318,SA,AR,AR-B,General Pinto,no,,,PNT,,,
38850,AR-0175,closed,General Rodriguez Airport,-34.497234,-59.037457,98,SA,AR,AR-B,General Rodriguez,no,,,,,,"GRZ, GRZ"
38851,AR-0176,small_airport,Los Toldos Airport,-34.97726,-61.020942,236,SA,AR,AR-B,General Viamonte,no,,,GNV,,,
38852,AR-0177,small_airport,Gobernador Crespo Aeroclub Airport,-30.3878,-60.3656,170,SA,AR,AR-S,Gobernador Crespo,no,,,GCR,,,
38853,AR-0178,small_airport,Gobernador Santillán Airport,-27.90139961,-64.24970245,689,SA,AR,AR-G,Santiago Del Estero,no,,,,,,
38854,AR-0179,small_airport,Gomez Airport,-35.0956,-58.0853,62,SA,AR,AR-B,Gomez,no,,,GOZ,,,
38855,AR-0180,small_airport,Gonzalez Chaves Airport,-38.02949,-60.135654,636,SA,AR,AR-B,Gonzalez Chaves,no,SA6R,,GVZ,,,
38856,AR-0181,small_airport,Goya Aeroclub,-29.1678,-59.2464,124,SA,AR,AR-W,Goya,no,,,GYA,,,
38857,AR-0182,small_airport,Guadalupe Airport,-31.584,-60.668,59,SA,AR,AR-S,Santa Fe,no,,,,,,
38858,AR-0183,small_airport,Gualeguay Airport,-33.10361099,-59.37472153,39,SA,AR,AR-E,Gualeguay,no,,,UAY,,,
38859,AR-0184,small_airport,Agro Aereo Gualeguay Airport,-33.0386,-59.4383,52,SA,AR,AR-E,Gualeguay,no,,,GAA,,,
38860,AR-0185,heliport,Helicenter Heliport,-34.497565,-58.606905,113,SA,AR,AR-B,Don Torcuato,no,,,HLI,,,
38861,AR-0186,heliport,Heliplataforma Am I Heliport,-52.5192,-68.3858,98,SA,AR,AR-Z,Santa Cruz,no,,,HAB,,,
38862,AR-0187,heliport,Heliplataforma Carina/Total Fina ELF,-52.7572,-67.2194,30,SA,AR,AR-V,Santa Cruz,no,,,HRI,,,
38863,AR-0188,heliport,Heliplataforma/Am-2 Heliport,-52.5489,-68.3125,134,SA,AR,AR-Z,Santa Cruz,no,,,HAD,,,
38864,AR-0189,heliport,Heliplataforma/Am3 Heliport,-52.5228,-68.2808,134,SA,AR,AR-Z,Santa Cruz,no,,,HAM,,,
38865,AR-0190,heliport,Heliplataforma/Am5 Heliport,-52.5706,-68.2533,98,SA,AR,AR-Z,Santa Cruz,no,,,HMQ,,,
38866,AR-0191,heliport,Heliplataforma/Rio Cullen-Hidra Norte Heliport,-52.8206,-68.2192,65,SA,AR,AR-V,Santa Cruz,no,,,HNO,,,
38867,AR-0192,heliport,Heliwest Heliport,-34.6336,-58.7511,71,SA,AR,AR-B,Moreno,no,,,HHW,,,
38868,AR-0193,small_airport,Henderson Airport,-36.31470108,-61.74779892,492,SA,AR,AR-B,Henderson,no,,,HDS,,,
38869,AR-0194,heliport,Hospital De Milagro Heliport,-24.7731,-65.4156,4068,SA,AR,AR-A,Salta,no,,,HHM,,,
38870,AR-0195,heliport,Hospital Materno Infantil San Roque Heliport,-31.73,-60.5217,265,SA,AR,AR-E,Paraná,no,,,HPE,,,
38871,AR-0196,heliport,Hospital Municipal Heliport,-34.4489,-59.4494,154,SA,AR,AR-B,San Andres De Giles,no,,,HSH,,,
38872,AR-0197,heliport,Professor Juan P Garrahan National Pediatric Hospital Heliport,-34.630983,-58.393916,127,SA,AR,AR-C,Buenos Aires,no,,,HNP,,,
38873,AR-0198,small_airport,Huanguelen Airport,-37.03305435,-61.93416595,518,SA,AR,AR-B,Huanguelen,no,,,HUG,,,
38874,AR-0199,small_airport,Huinca Renanco Airport,-34.82030106,-64.37310028,590,SA,AR,AR-X,Huinca Renanco,no,,,HUI,,,
38875,AR-0200,small_airport,Ingeniero Luiggi Airport,-35.35499954,-64.47583008,633,SA,AR,AR-L,Ingeniero Luiggi,no,,,IGL,,,
42803,AR-0201,small_airport,Agroservicio Doña Teresa Airport,-28.8494,-62.2625,246,SA,AR,AR-G,Bandera,no,,,ADT,,,
38877,AR-0202,small_airport,Establecimiento La Susana,-34.909168,-59.348888,121,SA,AR,AR-B,Ingeniero Williams,no,,,,,,
38878,AR-0203,small_airport,Intendente Alvear Airport,-35.2592,-63.5328,416,SA,AR,AR-L,Intendente Alvear,no,,,IAL,,,
38879,AR-0204,small_airport,Intendente Alvear,-35.2494,-63.5342,416,SA,AR,AR-L,Intendente Alvear,no,,,,,,
45160,AR-0205,small_airport,Fumigaciones Herbinsec Airport,-35.138611,-62.705278,366,SA,AR,AR-B,Roberts,no,,,ROH,,,
38881,AR-0206,heliport,Isla Santa Mónica Heliport,-34.4147,-58.5072,14,SA,AR,AR-B,Tigre,no,,,HSM,,,
38882,AR-0207,small_airport,Don Hector Biondi Airport,-33.2464,-62.4167,387,SA,AR,AR-X,Isla Verde,no,,,IVB,,,
38883,AR-0208,small_airport,Italaviation Airport,-29.1608,-59.1814,209,SA,AR,AR-W,Goya,no,,,GIT,,,
38884,AR-0209,small_airport,Jacinto Arauz Airport,-38.06610107,-63.42829895,524,SA,AR,AR-L,Jacinto Arauz,no,,,JAR,,,
38885,AR-0210,small_airport,Jardin De América Airport,-27.032499,-55.198055,672,SA,AR,AR-N,Jardin de América,no,,,JDA,,https://es.wikipedia.org/wiki/Aeroclub_Jard%C3%ADn_Am%C3%A9rica,
38886,AR-0211,small_airport,Jesús Maria Airport,-30.98810005,-64.07689667,1738,SA,AR,AR-X,Jesús Maria,no,,,JES,,,
38887,AR-0212,small_airport,Agropecuaria Rio Juramento Airport,-25.18670082,-64.08280182,1184,SA,AR,AR-A,Joaquin V. Gonzalez,no,,,JGA,,,
38888,AR-0213,small_airport,Tres Lomas Airport,-36.4439,-62.8792,380,SA,AR,AR-B,Jose Maria Blanco,no,,,JMB,,https://es.wikipedia.org/wiki/Aer%C3%B3dromo_de_Tres_Lomas,
38889,AR-0214,small_airport,Juan Carlos Bagur Airport,-32.4186,-59.8158,190,SA,AR,AR-E,Nogoya,no,,,NJB,,,
38890,AR-0215,heliport,Juan Y Luci Heliport,-32.6922,-64.7206,2404,SA,AR,AR-X,Alpa Corral,no,,,HAC,,,
38891,AR-0216,small_airport,Juarez Celman Airport,-31.21138954,-64.16139221,1680,SA,AR,AR-X,Juarez Celman,no,,,JCM,,,
38892,AR-0217,small_airport,La Angelita Airport,-30.8522,-58.7067,229,SA,AR,AR-E,Federal,no,,,FAG,,,
38893,AR-0218,small_airport,Trenque Lauquen Airport,-36.0158,-62.6939,324,SA,AR,AR-B,Trenque Lauquen,no,SA28,,LAU,,,
38894,AR-0219,small_airport,La Caida Airport,-34.859281,-58.342426,91,SA,AR,AR-B,Longchamps,no,,,LLC,,,
38895,AR-0220,heliport,La Caldera Heliport,-36.6669,-56.6789,32,SA,AR,AR-B,Costa Azul,no,,,HCA,,,
38896,AR-0221,heliport,La Carolina Heliport,-31.3525,-64.2828,1485,SA,AR,AR-X,La Carolina,no,,,HLC,,,
38897,AR-0222,small_airport,La Consulta Airport,-33.73083496,-69.17388916,3520,SA,AR,AR-M,La Consulta,no,,,,,,
38898,AR-0223,closed,La Fantasia,-34.7286,-59.109402,111,SA,AR,AR-B,Lujan,no,,,,,,
38899,AR-0224,small_airport,La Laja Airport,-31.35138893,-68.47305298,2132,SA,AR,AR-J,La Laja,no,,,AJA,,,
38900,AR-0225,small_airport,Quebracho Herrado Airport,-34.1553,-59.8739,170,SA,AR,AR-B,Capitán Sarmiento,no,,,CSQ,,,
38901,AR-0226,heliport,La Madrugada Heliport,-34.2382,-59.1915,85,SA,AR,AR-B,Capilla Del Señor,no,,,HLM,,,
38902,AR-0227,small_airport,La Mezquita Airport,-31.40080071,-64.3003006,1672,SA,AR,AR-X,Cordoba/La Mezquita,no,,,MEZ,,,
38903,AR-0228,heliport,La Milagrosa Heliport,-32.4828,-58.2506,49,SA,AR,AR-E,Concepcion Del Uruguay,no,,,HMI,,,
38904,AR-0229,small_airport,La Nueva Airport,-34.9464,-61.3042,246,SA,AR,AR-B,Lincoln,no,,,LNV,,,
38905,AR-0230,small_airport,La Paz Aeroclub Airport,-30.7442,-59.5683,200,SA,AR,AR-E,La Paz,no,,,LAZ,,https://en.wikipedia.org/wiki/La_Paz_Aeroclub,
38906,AR-0231,small_airport,La Pelada Airport,-30.9556,-60.8858,144,SA,AR,AR-S,La Pelada,no,,,PEL,,,
38907,AR-0232,small_airport,La Siesta Airport,-33.6939,-62.0625,367,SA,AR,AR-S,Venado Tuerto,no,,,VTO,,,
38908,AR-0233,heliport,La Superba Heliport,-34.5008,-59.015,32,SA,AR,AR-B,Open Door,no,,,HLS,,,
38909,AR-0234,small_airport,Laborde Airport,-33.1567,-62.8906,400,SA,AR,AR-X,Laborde,no,,,LAB,,,
38910,AR-0235,small_airport,Lago Buenos Aires Airport,-46.57640076,-70.94860077,1312,SA,AR,AR-Z,Lago Buenos Aires,no,,,BAI,,,
38911,AR-0236,heliport,Lago Escondido Heliport,-41.7033,-71.6075,2722,SA,AR,AR-R,Lago Escondido,no,,,HLE,,,
38912,AR-0237,small_airport,Lago La Esperanza Airport,-42.217499,-71.805003,1836,SA,AR,AR-U,Esquel,no,,,LZA,,,SA8A
38913,AR-0238,small_airport,Lago Nahuel Huapi Airport,-41.096709,-71.178021,2558,SA,AR,AR-R,Nahuel Huapi,no,,,LNH,,,
38914,AR-0239,small_airport,Laguna Aeroclub Airport,-34.40888977,-59.45833206,148,SA,AR,AR-B,San Andres de Giles,no,,,,,,
38915,AR-0240,small_airport,Laguna De Gomez Airport,-34.6539,-61.01,262,SA,AR,AR-B,Laguna de Gomez,no,,,LDG,,https://es.wikipedia.org/wiki/Aer%C3%B3dromo_Laguna_de_G%C3%B3mez,
38916,AR-0241,small_airport,Laprida Airport,-37.520913,-60.778141,705,SA,AR,AR-B,Laprida,no,SAEK,,LPR,,,SA8D
38917,AR-0242,heliport,Las Araucarias Heliport,-34.3067,-59.1703,82,SA,AR,AR-B,Capilla Del Señor,no,,,HCS,,,
38918,AR-0243,heliport,Las Chacritas Heliport,-34.405,-58.8631,64,SA,AR,AR-B,Villa Rosa,no,,,HLT,,,
38919,AR-0244,small_airport,Las Cortaderas Airport,-38.3547,-58.1089,52,SA,AR,AR-B,Miramar,no,,,BLL,,,
38920,AR-0245,small_airport,Las Marias Airport,-28.1,-56.05,410,SA,AR,AR-W,Gdor. Valentin Virasoro,no,,,VSO,,,
38921,AR-0246,small_airport,Las Ovejas Airport,-36.999699,-70.741897,3936,SA,AR,AR-Q,Las Ovejas,no,,,OVJ,,,
38922,AR-0247,small_airport,Las Rosas Airport,-32.4922,-61.5806,334,SA,AR,AR-S,Las Rosas,no,,,LRS,,,
38923,AR-0248,small_airport,Las Varillas Airport,-31.8914,-62.7047,442,SA,AR,AR-X,Las Varillas,no,,,LVL,,,
38924,AR-0249,small_airport,Lanzillota Airport,-32.72140121,-68.63420105,1869,SA,AR,AR-M,Ciudad de Lavalle,no,,,LLZ,,,
38925,AR-0250,heliport,Legat S.A. Heliport,-34.3168,-58.8166,16,SA,AR,AR-B,Belén De Escobar,no,,,HBE,,,
38926,AR-0251,small_airport,Leones Airport,-32.6368,-62.3148,373,SA,AR,AR-X,Leones,no,,,LEO,,,
38927,AR-0252,small_airport,Luján Airport,-34.5514,-59.0783,82,SA,AR,AR-B,Lujan,no,SA8Y,,LJN,,https://es.wikipedia.org/wiki/Aer%C3%B3dromo_de_Luj%C3%A1n,
38928,AR-0253,small_airport,Lincoln Airport,-34.8911,-61.5306,285,SA,AR,AR-B,Lincoln,no,,,LIN,,,
38929,AR-0254,small_airport,El Mirador,-34.538887,-59.585278,167,SA,AR,AR-B,San Andres de Giles,no,,,LAD2230,,,
38930,AR-0255,small_airport,Loberia Airport,-38.1906,-58.7864,265,SA,AR,AR-B,Loberia,no,,,LBI,,,
38931,AR-0256,small_airport,Nika Airport,-38.143874,-58.7479,262,SA,AR,AR-B,Lobería,no,,,NIK,,,
38932,AR-0257,small_airport,Lobos Airport,-35.210784,-59.137149,95,SA,AR,AR-B,Lobos,no,SA8S,,BOS,,,
38933,AR-0258,small_airport,Los Cardos Airport,-32.2719,-61.6622,341,SA,AR,AR-S,Los Cardos,no,,,LCD,,,
38934,AR-0259,heliport,Los Fresnos Heliport,-34.2806,-59.12,111,SA,AR,AR-B,Capilla Del Señor,no,,,HLF,,,
38935,AR-0260,small_airport,Los Perales Airport,-46.19079971,-69.28029633,1397,SA,AR,AR-Z,Las Heras,no,,,LHP,,,
38936,AR-0261,small_airport,Los Tucanes Airport,-27.03583336,-65.15666962,1194,SA,AR,AR-T,Tucuman,no,,,TUT,,,
38937,AR-0262,small_airport,Macachin Airport,-37.11109924,-63.54999924,459,SA,AR,AR-L,Macachin,no,,,MAC,,,
38938,AR-0263,heliport,Madero Heliport,-34.6217,-58.3447,16,SA,AR,AR-C,Buenos Aires,no,,,HBM,,,
38939,AR-0264,small_airport,Maipu Airport,-36.8903,-57.8503,52,SA,AR,AR-B,Maipu,no,,,MPU,,,
38940,AR-0265,heliport,Manuel Afonso Heliport,-34.815,-58.1953,36,SA,AR,AR-B,Hudson,no,,,HMA,,,
38941,AR-0266,small_airport,Marcos Paz Airfield,-34.7975,-58.8969,91,SA,AR,AR-B,Marcos Paz,no,SA9K,,MSP,,,
38942,AR-0267,small_airport,Martín Fierro Airport,-33.94029999,-64.36969757,754,SA,AR,AR-X,Vicuña Mackena,no,,,VMK,,,
38943,AR-0268,heliport,Match Point Heliport,-34.5161,-59.1339,82,SA,AR,AR-B,Lujan,no,,,HMP,,,
38944,AR-0269,small_airport,Meliquina Airport,-40.33530045,-71.33920288,3061,SA,AR,AR-Q,Meliquina,no,,,,,,
38945,AR-0270,heliport,Memorial Heliport,-34.4433,-58.8381,62,SA,AR,AR-B,Pilar,no,,,HME,,,
38946,AR-0271,small_airport,Mercedes Airport,-34.638136,-59.455395,137,SA,AR,AR-B,Mercedes,no,SA9M,,MRD,,,
42804,AR-0272,small_airport,Azcarate Irastorza Airport,-35.1994,-63.6008,416,SA,AR,AR-L,Intendente Alvear,no,,,IAA,,,
38948,AR-0273,small_airport,Metán Airport,-25.51440048,-64.96559906,2765,SA,AR,AR-A,Metan,no,SASM,,MTN,,,
38949,AR-0274,small_airport,Mina Clavero Airport,-31.73310089,-64.98560333,3181,SA,AR,AR-X,Mina Clavero,no,,,MCL,,,
38950,AR-0275,heliport,Miraflores Country Club Heliport,-34.4461,-58.7342,68,SA,AR,AR-B,Garin,no,,,HMC,,,
38951,AR-0276,small_airport,Monte Maiz Airport,-33.2103,-62.6297,370,SA,AR,AR-X,Monte Maiz,no,,,MAI,,,
38952,AR-0277,closed,Montecarlo Airport,-26.5439,-54.7239,787,SA,AR,AR-N,Montecarlo,no,,,,,,"MTL, MTL"
38953,AR-0278,small_airport,Moromar Airport,-38.425775,-58.371331,49,SA,AR,AR-B,Quequen,no,,,UEN,,,
38954,AR-0279,heliport,Morrison Heliport,-32,-62,465,SA,AR,AR-X,Morrison,no,,,HRR,,,
38955,AR-0280,small_airport,Morteros Airport,-30.6778,-62.0267,308,SA,AR,AR-X,Morteros,no,,,MTR,,,
38956,AR-0281,small_airport,Navarro Airport,-35.0236,-59.2858,98,SA,AR,AR-B,Navarro,no,SA9Z,,NVR,,,
38957,AR-0282,small_airport,Nogoya Airport,-32.4025,-59.7461,137,SA,AR,AR-E,Nogoya,no,,,NOG,,,
38958,AR-0283,heliport,Norberto Cordeiro Heliport,-31.4142,-64.4969,2036,SA,AR,AR-X,Villa Carlos Paz,no,,,HAI,,,
38959,AR-0284,heliport,Sub-Inspector Official Gustavo Soarez de Souza Heliport,-34.723586,-58.5149,141,SA,AR,AR-B,La Matanza,no,,,HMF,,,
38960,AR-0285,small_airport,Oliva Airport,-32.06079865,-63.5469017,879,SA,AR,AR-X,Oliva,no,,,OLV,,,
38961,AR-0286,heliport,Oreste Berta Heliport,-31.6269,-64.3922,1869,SA,AR,AR-X,Alta Gracia,no,,,HOB,,,
38962,AR-0287,heliport,Argentine Naval Prefecture Principal Official Ballestra Heliport,-34.5772,-58.3838,19,SA,AR,AR-C,Buenos Aires,no,,,HPN,,,Helipuerto PNA de Oficial Principal Ballestra
339851,AR-0288,small_airport,Haydee Airport,-35.669894,-61.405525,269,SA,AR,AR-B,Carlos Caceres,no,,,CCH,,,
38964,AR-0289,small_airport,Parana Aeroclub Airport,-31.7578,-60.3733,196,SA,AR,AR-E,Parana,no,,,ANA,,,
38965,AR-0290,small_airport,Parana Club De Planeadores Airport,-31.7314,-60.22,151,SA,AR,AR-E,Parana,no,,,PNA,,,
38966,AR-0291,small_airport,Parque Hermoso Airport,-38.0287,-57.6393,196,SA,AR,AR-B,Mar Del Plata,no,,,MPH,,,
38967,AR-0292,small_airport,Pedro Luro Airport,-39.4561,-62.6747,88,SA,AR,AR-B,Pedro Luro,no,,,URO,,https://es.wikipedia.org/wiki/Aer%C3%B3dromo_de_Pedro_Luro,
38968,AR-0293,small_airport,Pellegrini Airport,-36.2828,-63.1342,370,SA,AR,AR-B,Pellegrini,no,,,PLG,,,
38969,AR-0294,small_airport,LAD 2198 Juan Jose Angelini,-34.426945,-59.480278,164,SA,AR,AR-B,San Andres de Giles,no,,,LAD2198,,,
38970,AR-0295,small_airport,Pilcaniyeu Airport,-41.12666702,-70.71389008,3192,SA,AR,AR-R,Pilcaniyeu,no,,,,,,
38971,AR-0296,small_airport,Pinamar Airport,-37.0911,-56.9783,9,SA,AR,AR-B,Pinamar,no,SAB4,,PNR,,,
38972,AR-0297,heliport,Planta Cruz Del Sur Heliport,-53.3228,-68.2658,173,SA,AR,AR-V,Bahía San Sebastián,no,,,HEN,,,
38973,AR-0298,small_airport,Poblet Airport,-35.0881,-57.9492,65,SA,AR,AR-B,Poblet,no,,,PBE,,,
38974,AR-0299,heliport,Policía Provincia De Córdoba Heliport,-31.3994,-64.1833,1293,SA,AR,AR-X,Cordoba,no,,,HPC,,,
38975,AR-0300,heliport,Policlinico San Martin Heliport,-34.9167,-57.9167,68,SA,AR,AR-B,La Plata,no,,,HPM,,,
38976,AR-0301,heliport,Polisur S.A. Heliport,-38.7742,-62.2939,16,SA,AR,AR-B,Bahía Blanca,no,,,HBP,,,
38977,AR-0302,closed,Posadas Aeroclub Airport,-27.4175,-55.939724,443,SA,AR,AR-N,Posadas,no,,,,,,
38978,AR-0303,heliport,Presidencia De La Nación Heliport,-34.6064,-58.3683,26,SA,AR,AR-C,Buenos Aires,no,,,,,,
38979,AR-0304,small_airport,Puán Airport,-37.53939819,-62.73419952,787,SA,AR,AR-B,Puán,no,,,PUA,,,
38980,AR-0305,small_airport,Pueblo Esther Airport,-33.0817,-60.5647,82,SA,AR,AR-S,Rosario,no,,,ROP,,,
38981,AR-0306,small_airport,Terminal 6 Airport,-32.6417,-60.7539,85,SA,AR,AR-S,Puerto San Martín,no,,,PST,,,
38982,AR-0307,small_airport,Pulmari Airport,-39.10055542,-70.99888611,3245,SA,AR,AR-Q,Pulmari,no,,,,,,
38983,AR-0308,small_airport,Punta Alta Airport,-38.8342,-62.0869,9,SA,AR,AR-B,Punta Alta,no,,,PLT,,,
38984,AR-0309,heliport,Raies Heliport,-31.3461,-64.2081,1459,SA,AR,AR-X,Cordoba,no,,,HRA,,,
38985,AR-0310,heliport,Rancho De Montaña Heliport,-40.1525,-71.2856,3297,SA,AR,AR-Q,San Martín De Los Andes,no,,,HRM,,,
38986,AR-0311,small_airport,La Igualdad Airport,-35.5133,-58.3531,59,SA,AR,AR-B,Ranchos,no,,,RAI,,,
38987,AR-0312,small_airport,Rawson Airport,-43.2944,-65.0644,36,SA,AR,AR-U,Rawson,no,,,RAW,,,
38988,AR-0313,small_airport,Realicó Airport,-35.05920029,-64.21109772,541,SA,AR,AR-L,Realicó,no,,,RLC,,,
38989,AR-0314,small_airport,Nueva Valencia Airport,-27.5864,-58.8203,186,SA,AR,AR-W,Riachuelo,no,,,ENV,,,
38990,AR-0315,small_airport,Don Jose Airport,-32.8275,-60.7817,82,SA,AR,AR-S,Ricardone,no,,,RDJ,,,
38991,AR-0316,small_airport,Rio Chico Airport,-51.668997,-69.266365,68,SA,AR,AR-Z,Rio Gallegos,no,,,RGR,,,
38992,AR-0317,heliport,Estancia Rio Ewan Heliport,-54.233548,-67.213246,112,SA,AR,AR-V,Río Grande,no,,,HRW,,,
38993,AR-0318,small_airport,Rivadavia Airport,-33.227222,-68.474167,2162,SA,AR,AR-M,Rivadavia,no,,,RVD,,https://en.wikipedia.org/wiki/Rivadavia_Airport,
38994,AR-0319,small_airport,Rojas Airport,-34.215,-60.6725,19,SA,AR,AR-B,Rojas,no,,,RJA,,,
38995,AR-0320,small_airport,Rosario De La Frontera Airport,-25.82805634,-64.96805573,2746,SA,AR,AR-A,Rosario de La Frontera,no,,,FRO,,,
38996,AR-0321,small_airport,Rosario Del Tala Airport,-32.3289,-59.1906,177,SA,AR,AR-E,Rosario Del Tala,no,,,ROT,,,
38997,AR-0322,small_airport,Rufino Airport,-34.2831,-62.6719,387,SA,AR,AR-S,Rufino,no,,,RUF,,,
38998,AR-0323,small_airport,Salliqueló Airport,-36.75640106,-62.94440079,475,SA,AR,AR-B,Salliqueló,no,,,SLO,,,
38999,AR-0324,small_airport,Salto Airport,-34.306864,-60.286489,193,SA,AR,AR-B,Salto,no,SA75,,SLT,,,
39000,AR-0325,small_airport,San Benito Airport,-31.8086,-60.4517,193,SA,AR,AR-E,San Benito,no,,,SBE,,,
39001,AR-0326,small_airport,San Cayetano Heliport,-38.33388901,-59.63027954,328,SA,AR,AR-B,San Cayetano,no,,,,,,
39002,AR-0327,small_airport,San Cristobal Airport,-30.2642,-61.2203,242,SA,AR,AR-S,San Cristobal,no,,,SCT,,,
39003,AR-0328,small_airport,San Francisco Airport,-31.4142,-62.1336,374,SA,AR,AR-X,San Francisco,no,,,FRA,,,
39004,AR-0329,heliport,San Isidro Labrador Heliport,-35.0814,-63.0822,377,SA,AR,AR-B,General Villegas,no,,,HIL,,,
39005,AR-0330,heliport,San Joaquín Heliport,-34.338502,-59.721508,137,SA,AR,AR-B,Carmen de Areco,no,,,HRC,,,
39006,AR-0331,small_airport,San Jorge Airport,-31.8836,-61.8442,347,SA,AR,AR-S,San Jorge,no,,,JOR,,,
39007,AR-0332,small_airport,San Justo Airport,-30.7642,-60.5653,180,SA,AR,AR-S,San Justo,no,,,SJT,,,
39008,AR-0333,small_airport,Aeroclub San Martín,-33.061883,-68.508644,2154,SA,AR,AR-M,San Martin,no,SAMI,,STI,https://www.facebook.com/Aero-Club-San-Martin-1620167351592200/,https://en.wikipedia.org/wiki/San_Mart%C3%ADn_Airport,
39009,AR-0334,small_airport,San Miguel del Monte Airport,-35.4594,-58.7636,78,SA,AR,AR-B,San Miguel del Monte,no,,,SMM,,,Bahia Agradable
42805,AR-0335,small_airport,Bahía Dorada Airport,-41.8428,-65.0822,118,SA,AR,AR-R,Sierra Grande,no,,,BDR,,,
39011,AR-0336,small_airport,San Vicente Airport,-26.95330048,-54.4878006,1804,SA,AR,AR-N,Fabiano,no,,,VTE,,,
39012,AR-0337,heliport,Sanatorio Guemes Heliport,-34.597,-58.4219,268,SA,AR,AR-C,Buenos Aires,no,,,HSG,,,
39013,AR-0338,small_airport,Santo Tome Airport,-28.52722168,-56.10944366,223,SA,AR,AR-W,Santo Tome,no,,,,,,
39014,AR-0339,heliport,Sarthou S.A. Heliport,-34.3642,-58.5497,15,SA,AR,AR-B,San Fernando,no,,,HFS,,,
39015,AR-0340,heliport,Saturnino Unzue Heliport,-35.4244,-60.1561,164,SA,AR,AR-B,Mar del Plata,no,,,HUU,,,
39016,AR-0341,small_airport,Scaro Airport,-24.44805527,-65.17583466,3228,SA,AR,AR-Y,Monterrico,no,,,MTS,,,
46643,AR-0342,small_airport,Villa de María de Río Seco Airport,-29.9,-63.683,,SA,AR,AR-X,Villa de María de Río Seco,no,SACV,,MRS,,https://en.wikipedia.org/wiki/Villa_Mar%C3%ADa_de_R%C3%ADo_Seco_Airport,
39018,AR-0343,heliport,Sol De Agosto Heliport,-34.5331,-58.9714,32,SA,AR,AR-B,Lujan,no,,,HAG,,,
39019,AR-0344,small_airport,Stroeder Airport,-40.207635,-62.61858,91,SA,AR,AR-B,Stroeder,no,,,STD,,https://es.wikipedia.org/wiki/Aer%C3%B3dromo_de_Stroeder,
39020,AR-0345,small_airport,Suboficial Auxiliar Miguel A. Cardone Airport,-33.9617,-61.6325,337,SA,AR,AR-S,Villa Cañas,no,,,VCC,,,
39021,AR-0346,small_airport,Sunchales Aeroclub Airport,-30.9575,-61.5283,299,SA,AR,AR-S,Sunchales,no,SAFS,NCJ,SCA,,https://en.wikipedia.org/wiki/Sunchales_Aeroclub_Airport,
39022,AR-0347,heliport,Swiss Medical Heliport,-34.5808,-58.4294,193,SA,AR,AR-C,Buenos Aires,no,,,HMD,,,
39023,AR-0348,heliport,Talitas Heliport,-32.5481,-58.2406,26,SA,AR,AR-E,Concepcion Del Uruguay,no,,,HTA,,,
39024,AR-0349,small_airport,Estancia Tecka Airport,-43.61222076,-71.02194214,2361,SA,AR,AR-U,Chubut,no,,,TEC,,,
39025,AR-0350,heliport,Tecnocopter S.A. Heliport,-34.4922,-58.6061,65,SA,AR,AR-B,Don Torcuato,no,,,HHT,,,
39026,AR-0351,heliport,Terminal Y.P.F. Heliport,-34.731923,-58.557735,32,SA,AR,AR-B,La Matanza,no,,,HMY,,,
39027,AR-0352,small_airport,Tilisarao Airport,-32.75,-65.28220367,2463,SA,AR,AR-D,Tilisarao,no,,,TLS,,,
39028,AR-0353,heliport,Timen S.A. Heliport,-34.4964,-58.6078,19,SA,AR,AR-B,Don Torcuato,no,,,HDT,,,
39029,AR-0354,small_airport,Tolosa Airport,-34.8747,-57.9608,18,SA,AR,AR-B,La Plata,no,,,PTL,,,Aeroclub La Plata
39030,AR-0355,small_airport,Tornquist Airport,-38.0956,-62.250301,934,SA,AR,AR-B,Tornquist,no,,,TOR,,https://es.wikipedia.org/wiki/Aer%C3%B3dromo_de_Tornquist,
39031,AR-0356,small_airport,Tostado Airport,-29.2358,-61.7886,226,SA,AR,AR-S,Tostado,no,,,TOS,,,
39032,AR-0357,heliport,Transener S.A. Heliport,-34.175,-58.9983,32,SA,AR,AR-B,Campana,no,,,HCT,,,
39033,AR-0358,heliport,Transener S.A. Heliport,-34.9136,-58.7222,65,SA,AR,AR-B,Ezeiza,no,,,HCG,,,
39034,AR-0359,heliport,Transener S.A. Heliport,-32.3694,-66.0631,1968,SA,AR,AR-D,Lujan,no,,,HLU,,,
39035,AR-0360,heliport,Recreo / Transener S.A. Heliport,-29.2628,-65.0582,810,SA,AR,AR-K,Recreo,no,,,HRE,,,
39036,AR-0361,heliport,Transener S.A. Heliport,-38.1472,-65.8228,751,SA,AR,AR-L,Puelches,no,,,HPU,,,
39037,AR-0362,heliport,Transener S.A. Heliport,-33.0989,-68.5819,2220,SA,AR,AR-M,Barreales,no,,,HCR,,,
39038,AR-0363,heliport,Transener S.A. Heliport,-40.1622,-70.3917,2302,SA,AR,AR-Q,Piedra Del Aguila,no,,,HPG,,,
39039,AR-0364,heliport,Transener S.A. Heliport,-39.5675,-65.6886,426,SA,AR,AR-R,Choele Choel,no,,,HCC,,,
39040,AR-0365,heliport,Transener S.A. Heliport,-29.4606,-59.7636,190,SA,AR,AR-S,Romang,no,,,HRT,,,
39041,AR-0366,heliport,Transener S.A. Heliport,-26.9936,-65.1636,1239,SA,AR,AR-T,El Bracho,no,,,HBO,,,
39042,AR-0367,heliport,Almafuerte / Transener S.A. Heliport,-32.203,-64.315,1640,SA,AR,AR-X,Almafuerte,no,,,HAT,,,
39043,AR-0368,heliport,Montecristo / Transener S.A. Heliport,-31.3392,-63.9138,1082,SA,AR,AR-X,Monte Cristo,no,,,HMT,,,
39044,AR-0369,small_airport,Chevron Texaco Airport,-37.365002,-69.300278,2896,SA,AR,AR-Q,El Trapial,no,TXO,,TXO,,,
39045,AR-0370,small_airport,Horco Molle Aeroclub Airport,-26.79610062,-65.30919647,1902,SA,AR,AR-T,Tucumán,no,,,TCM,,https://en.wikipedia.org/wiki/Mauricio_Gilli_Aerodrome,Mauricio Gilli Aerodrome
39046,AR-0371,heliport,Unidad Penitenciaria N° 30 Heliport,-36.0444,-60.0167,180,SA,AR,AR-B,General Alvear,no,,,HUP,,,
39047,AR-0372,small_airport,Urdinarrain Airport,-32.6964,-58.8992,216,SA,AR,AR-E,Urdinarrain,no,,,URD,,,
39048,AR-0373,small_airport,Veinticinco De Mayo Airport,-35.4464,-60.0886,164,SA,AR,AR-B,Veinticinco De Mayo,no,,,MAY,,,
39049,AR-0374,small_airport,Vera Airport,-29.4681,-60.2261,190,SA,AR,AR-S,Vera,no,,,VER,,,
39050,AR-0375,small_airport,Veronica Airport,-35.4,-57.3667,55,SA,AR,AR-B,Veronica,no,,,VNA,,https://es.wikipedia.org/wiki/Aer%C3%B3dromo_de_Ver%C3%B3nica,
39051,AR-0376,small_airport,Victoria Airport,-32.5844,-60.1847,75,SA,AR,AR-E,Victoria,no,,,VIC,,,
39052,AR-0377,small_airport,Victorica Airport,-36.23749924,-65.45055389,1020,SA,AR,AR-L,Victorica,no,SAHV,,VCA,,,
39053,AR-0378,small_airport,Villa Del Rosario Airport,-31.579313,-63.539184,830,SA,AR,AR-X,Villa Del Rosario,no,,,VDR,,,
39054,AR-0379,small_airport,Villa General Belgrano Airport,-31.96529961,-64.56439972,2755,SA,AR,AR-X,Villa General Belgrano,no,,,VGB,,,
39055,AR-0380,small_airport,Villa Ocampo Airport,-28.4969,-59.3256,160,SA,AR,AR-S,Villa Ocampo,no,,,VPO,,,
39056,AR-0381,small_airport,Villa Regina Airport,-39.073601,-67.080002,934,SA,AR,AR-R,Villa Regina,no,,,VRG,,https://es.wikipedia.org/wiki/Aer%C3%B3dromo_de_Villa_Regina,
39057,AR-0382,small_airport,Villa Rumipal Airport,-32.18500137,-64.48829651,2184,SA,AR,AR-X,Villa Rumipal,no,,,VRU,,,
39058,AR-0383,small_airport,Zarate Airport,-34.119912,-59.083198,85,SA,AR,AR-B,Zarate,no,SA2L,,ATE,,,
42806,AR-0384,small_airport,Belingueres Aviación Airport,-34.2778,-60.5044,209,SA,AR,AR-B,Ines Indart,no,,,IBA,,,
42807,AR-0385,small_airport,Bocca Airport,-31.8711,-61.9511,344,SA,AR,AR-S,San Jorge,no,,,SJB,,,
42808,AR-0386,small_airport,Buena Esperanza Airport,-30.5306,-58.3972,246,SA,AR,AR-E,Los Conquistadores,no,,,EZA,,,
42809,AR-0387,small_airport,Buenos Aires Airport,-33.859722,-59.468887,85,SA,AR,AR-B,"Pueblo Alsina, Baradero",no,,,BEX,,,
42810,AR-0388,small_airport,Burdisso Airport,-32.2406,-61.7583,364,SA,AR,AR-S,El Trebol,no,,,TBL,,,
42811,AR-0389,closed,Carlos Saqui Airport,-31.63500023,-63.86109924,1066,SA,AR,AR-X,Rio Segundo,no,,,,,,"RSA, RSA"
42812,AR-0390,small_airport,Carmen de Patagones Airport,-40.7781,-62.9803,131,SA,AR,AR-B,Carmen de Patagones,no,SA3R,CPG,PAT,,https://en.wikipedia.org/wiki/Carmen_de_Patagones_Airport,
42813,AR-0391,small_airport,Mar del Plata Gliding Club,-38.0153,-57.6536,147,SA,AR,AR-B,Mar del Plata,no,,,MPP,,,
42814,AR-0392,small_airport,Colonia Tirolesa Airport,-31.244722,-64.035278,1335,SA,AR,AR-X,Colonia Tirolesa,no,,,TIR,,,
42815,AR-0393,small_airport,Comandante Eduardo A. Olivero Airport,-37.347686,-58.9853,633,SA,AR,AR-B,Tandil,no,SA1A,,,,,
42816,AR-0394,small_airport,Concepción Airport,-27.345434,-65.617973,1200,SA,AR,AR-T,Concepción,no,,,CCP,,,
42817,AR-0395,small_airport,Brandsen Airport,-35.1828,-58.2839,52,SA,AR,AR-B,Brandsen,no,,,SEN,,,Coronel Brandsen
42818,AR-0396,small_airport,Coronel Moldes Airport,-33.616669,-64.612503,1170,SA,AR,AR-X,Coronel Moldes,no,,,MLD,,,
42819,AR-0397,small_airport,Di Giuseppe Airport,-32.8908,-61.1239,291,SA,AR,AR-S,Carcarañá,no,,,CDI,,,
42820,AR-0398,small_airport,Dinaluca S.A. Airport,-27.3828,-57.6442,219,SA,AR,AR-W,Berón de Astrada,no,,,BAD,,,
42821,AR-0399,small_airport,General Rodriguez Ildefonso Durana Airport,-34.6803,-59.0358,91,SA,AR,AR-B,General Rodriguez,no,,,GEZ,,,"EAA Argentina, Experimentales Aeronaves Asociación Argentina, GEZ"
42822,AR-0400,small_airport,El Girasol Airport,-33.6661,-59.8339,91,SA,AR,AR-B,Gobernador Castro,no,,,GOC,,,
42823,AR-0401,small_airport,El Gringo Airport,-27.3086,-61.2114,301,SA,AR,AR-H,Charata,no,,,CHT,,,
42824,AR-0402,small_airport,El Jagüel Airport,-31.7994,-59.0339,200,SA,AR,AR-E,Villaguay,no,,,UEL,,,
42825,AR-0403,small_airport,El Malagueño Airport,-31.6994,-59.4006,180,SA,AR,AR-E,Villaguay,no,,,VLL,,,
42826,AR-0404,small_airport,El Pilincho Airport,-30.3872,-57.9683,228,SA,AR,AR-W,Monte Caseros,no,,,MCP,,,
42827,AR-0405,small_airport,El Toto Airport,-31.650278,-64.368889,540,SA,AR,AR-X,Alta Gracia,no,,,TOT,,,
42828,AR-0406,small_airport,Establecimiento La Adelita Airport,-31.3925,-61.1431,164,SA,AR,AR-S,Humboldt,no,,,HUM,,,
42829,AR-0407,small_airport,Establecimiento La Florencia Airport,-33.0769,-61.3178,246,SA,AR,AR-S,Los Molinos,no,,,LMF,,,
42830,AR-0408,small_airport,Estancia Caridad Airport,-43.72139,-71.24556,2427,SA,AR,AR-U,El Corcovado,no,,,VEC,,,
42831,AR-0409,closed,Estancia El Chañar Airport,-31.2887,-62.4189,331,SA,AR,AR-X,Colonia Marina,no,,,,,,"CLM, CLM"
42832,AR-0410,small_airport,Aeródromo Estancia La Leonor,-26.1494,-59.6672,285,SA,AR,AR-H,Presidencia Roca,no,,,PRA,,,
42833,AR-0411,small_airport,Estancia La Providencia Airport,-32.9411,-58.565,65,SA,AR,AR-E,Gualeguaychú,no,,,GLP,,,
42834,AR-0412,small_airport,Aeródromo de la Estancia La Salvación,-25.2767,-58.9375,321,SA,AR,AR-P,Pirane,no,,,PLS,,,
42835,AR-0413,small_airport,Estancia Lucila Airport,-38.3086,-58.105,72,SA,AR,AR-B,Mar del Sur,no,,,ELL,,,
42836,AR-0414,small_airport,Estancia San Vicente Airport,-32.9989,-61.7781,229,SA,AR,AR-S,Tortugas,no,,,TSV,,,
42837,AR-0415,small_airport,Estancia Santa Romana Airport,-33.753334,-65.246391,1548,SA,AR,AR-D,Mercedes,no,,,MSR,,,
42838,AR-0416,small_airport,Estancia Villa Corina Airport,-28.035,-56.0678,403,SA,AR,AR-W,Gobernador Valentin Virasoro,no,,,EVC,,,
42839,AR-0417,small_airport,Estancia Villa María,-34.6433,-59.1272,104,SA,AR,AR-B,Luján,no,,,LVM,,,
42840,AR-0418,small_airport,F.A.T. Airport,-34.1767,-61.5069,285,SA,AR,AR-S,Teodelina,no,,,TEO,,,
42841,AR-0419,small_airport,Finca La Frontera Airport,-22.12351,-63.29055,160,SA,AR,AR-A,"Aguaray, San Martín",no,,,SMF,,,
42842,AR-0420,small_airport,Firmat Airport,-33.4661,-61.4842,344,SA,AR,AR-S,Firmat,no,,,FIM,,,
42843,AR-0421,small_airport,Fumigaciones Campagnucci Airport,-33.3239,-60.6658,157,SA,AR,AR-S,Coronel Bogado,no,,,BOG,,,
42844,AR-0422,small_airport,Fumigaciones Fredy Airport,-34.2361,-60.5819,176,SA,AR,AR-B,Hunter,no,,,PRC,,,
42845,AR-0423,small_airport,Fumigaciones González Airport,-32.3589,-60.9797,98,SA,AR,AR-S,Monje,no,,,MON,,,
42846,AR-0424,small_airport,General Belgrano Airport,-24.745834,-65.418892,4136,SA,AR,AR-A,General Belgrano - Salta,no,,,GBL,http://www.aeroclubsalta.com/,,SA74
42847,AR-0425,small_airport,General San Martin (La Pampa) Airport,-37.94972,-63.6175,528,SA,AR,AR-L,General San Martin,no,,,SMT,,,
42848,AR-0426,small_airport,Ginevro Airport,-31.864445,-62.844166,475,SA,AR,AR-X,Las Varillas,no,,,LVR,,,
42849,AR-0427,small_airport,Gualeguay Aeroclub Airport,-33.0994,-59.4172,49,SA,AR,AR-E,Gualeguay,no,,,UAE,,,
42850,AR-0428,closed,Guatraché Airport,-37.68280029,-63.55080032,574,SA,AR,AR-L,Guatraché,no,,,,,,"GTE, GTE"
42851,AR-0429,small_airport,Haras La Pomme Airport,-34.2078,-59.3856,91,SA,AR,AR-B,San Antonio de Areco,no,,,SHP,,,
42852,AR-0430,closed,Haras Trelliris Airport,-35.33138,-60.57916,196,SA,AR,AR-B,Comodoro Py,no,,,,,,"BHT, BHT"
42853,AR-0431,small_airport,Hosteria San Huberto Airport,-39.70388794,-71.16999817,2810,SA,AR,AR-Q,Junin de Los Andes,no,,,JAH,,,
42854,AR-0432,small_airport,Iriberri Airport,-38.478789,-58.804836,108,SA,AR,AR-B,Necochea,no,,,NEI,,,
42855,AR-0433,small_airport,Islas Del Ibicuy Airport,-33.75,-58.7,19,SA,AR,AR-E,Islas del Ibicuy,no,,,IBY,,,
42856,AR-0434,small_airport,La Carlota Airport,-33.45000076,-63.34999847,505,SA,AR,AR-X,La Carlota,no,,,LCT,,,
42857,AR-0435,small_airport,La Chacra Airport,-34.81255,-62.522467,357,SA,AR,AR-B,Ameghino,no,SA50,,ALC,,,
42858,AR-0436,small_airport,La Esmeralda Airport,-29.9939,-57.8378,265,SA,AR,AR-W,Libertad,no,,,LLE,,,
42859,AR-0437,small_airport,La Lucía Airport,-33.0119,-61.0608,239,SA,AR,AR-S,Pujato,no,,,PLL,,,
42860,AR-0438,small_airport,La Madrugada Airport,-38.0036,-59.3489,449,SA,AR,AR-B,Juan N. Fernández,no,,,LMD,,,
42861,AR-0439,small_airport,La Mariela Airport,-35.7828,-61.9342,282,SA,AR,AR-B,Pehuajó,no,,,PJO,,,
42862,AR-0440,small_airport,La Zulema Airport,-32.4897,-62.6714,423,SA,AR,AR-X,Bell Ville,no,,,ZLM,,,
42863,AR-0441,small_airport,Las Lilas Airport,-35.1328,-62.2175,350,SA,AR,AR-B,Pasteur,no,,,PAS,,,
42864,AR-0442,small_airport,Malabrigo Airport,-29.35,-59.9667,177,SA,AR,AR-S,Malabrigo,no,,,MLA,,,
42865,AR-0443,closed,Match Point Airport,-34.5161,-59.1339,82,SA,AR,AR-B,Luján,no,,,,,,"LMP, LMP"
42866,AR-0444,small_airport,Montes De Oca Airport,-32.5811,-61.8408,62,SA,AR,AR-S,Montes de Oca,no,,,OCA,,,
42867,AR-0445,small_airport,Ñancu Airport,-35.6161,-63.7508,446,SA,AR,AR-L,General Pico,no,,,GPU,,,
42868,AR-0446,small_airport,Pedro Ferrari Airport,-32.9278,-62.4336,354,SA,AR,AR-X,Monte Buey,no,,,MBF,,,
42869,AR-0447,small_airport,Petrazzini Airport,-38.3478,-60.2761,350,SA,AR,AR-B,Tres Arroyos,no,,,YOP,,,
42870,AR-0448,small_airport,Aeródromo Petruk,-27.0878,-58.6694,177,SA,AR,AR-H,Las Palmas,no,,,LPP,,,
42871,AR-0449,small_airport,Pettilep Airport,-33.005,-61.0194,200,SA,AR,AR-S,Pujato,no,,,PUP,,,
42872,AR-0450,small_airport,Pettilep II Airport,-32.8039,-60.7989,180,SA,AR,AR-S,Ricardone,no,,,PEP,,,
42873,AR-0451,small_airport,Puerta De Avalos Airport,-24.314679,-65.247198,3904,SA,AR,AR-Y,Jujuy,no,,,PDA,,,
42874,AR-0452,small_airport,Pulverizaciones M.H. Airport,-27.4831,-61.6486,318,SA,AR,AR-H,Gancedo,no,,,GDO,,,
42875,AR-0453,small_airport,Saldungaray Airport,-38.205278,-61.761111,747,SA,AR,AR-B,Saldungaray,no,,,SLG,,https://es.wikipedia.org/wiki/Aer%C3%B3dromo_de_Saldungaray,
42876,AR-0454,small_airport,San Cayetano Airport,-38.3339,-59.6303,328,SA,AR,AR-B,San Cayetano,no,,,CAY,,https://es.wikipedia.org/wiki/Aer%C3%B3dromo_de_San_Cayetano,
42877,AR-0455,small_airport,San Gregorio Airport,-34.3169,-62.0192,347,SA,AR,AR-S,San Gregorio,no,,,SGE,,,
42878,AR-0456,small_airport,San Ignacio Airport,-39.84749985,-70.8638916,2267,SA,AR,AR-Q,Junin de Los Andes,no,,,JLA,,,
42879,AR-0457,small_airport,San José De La Dormida Airport,-30.27750015,-63.85749817,1387,SA,AR,AR-X,San José de La Dormida,no,,,SJD,,,
42880,AR-0458,small_airport,Santo Tomás de La Sierra Airport,-38.241804,-61.827675,895,SA,AR,AR-B,Saldungaray,no,,,SLY,,,
42881,AR-0459,small_airport,Savesa Airport,-33.7792,-61.9775,360,SA,AR,AR-S,Venado Tuerto,no,,,VTS,,,
42882,AR-0460,small_airport,Sigfrido Rohr Aviagro S.R.L. Airport,-34.8306,-62.4678,360,SA,AR,AR-B,Ameghino,no,SA51,,AME,,,
42883,AR-0461,small_airport,Skare Airport,-34.35718331,-60.15598297,196,SA,AR,AR-B,Salto,no,,,SSK,,,
42884,AR-0462,small_airport,Termal Airport,-26.753611,-60.492222,308,SA,AR,AR-H,Presidencia Roque Sáenz Peña,no,SARS,PRQ,PSP,,https://en.wikipedia.org/wiki/Primer_Teniente_Jorge_Eduardo_Casco_Airport,
42885,AR-0463,small_airport,Timboy Airport,-30.2236,-57.8444,213,SA,AR,AR-W,Monte Caseros,no,,,MCT,,,
42886,AR-0464,small_airport,Trevelin Airport,-43.08797,-71.47868,1245,SA,AR,AR-U,Trevelin,no,,,TVN,,,
45161,AR-0465,small_airport,Casilda Fumigaciones Airport,-33.176429,-61.20299,259,SA,AR,AR-S,Sanford,no,,,SCF,,,
42888,AR-0466,small_airport,Yapeyú Airport,-29.44393,-56.823915,214,SA,AR,AR-W,Yapeyú,no,,,YPY,,,
42889,AR-0467,heliport,Berrini Heliport,-31.4397,-64.3433,1811,SA,AR,AR-X,Córdoba,no,,,HBR,,,
42890,AR-0468,heliport,Campanopolis Heliport,-34.791746,-58.601936,19,SA,AR,AR-B,La Matanza,no,,,HIS,,,
42891,AR-0469,heliport,Casa De Lata Heliport,-39.8153,-71.1681,3221,SA,AR,AR-Q,Junín de Los andes,no,,,HDL,,,
42892,AR-0470,heliport,San Diego Country Club Heliport,-34.600503,-58.840933,71,SA,AR,AR-B,Moreno,no,,,HSD,,,
42893,AR-0471,heliport,Dayry Partners Americas Manufacturing Argentina Sa Heliport,-32.44,-63.2289,639,SA,AR,AR-X,Villa Nueva,no,,,HNE,,,
42894,AR-0472,heliport,Dr. Mariano Moreno Heliport,-34.5631,-58.7903,104,SA,AR,AR-B,José C. Paz,no,,,HMM,,,
42895,AR-0473,heliport,Estancia La Pascuala Heliport,-37.3936,-58.9661,721,SA,AR,AR-B,Tandil,no,,,HTD,,,
42896,AR-0474,heliport,Heliplataforma Barcaza Yagana Heliport,-52.5225,-68.2806,49,SA,AR,AR-Z,Barcaza Yagana,no,,,HBY,,,
42897,AR-0475,heliport,Heliplataforma Buque Skandi Patagonia Heliport,-52,-67,,SA,AR,AR-Z,Buque Skandi,no,,,HSP,,,
42898,AR-0476,heliport,Heliplataforma Equipo Modular M-10 Heliport,-52.5489,-68.3119,108,SA,AR,AR-Z,,no,,,HEM,,,
42899,AR-0477,heliport,Metalúrgico / Miguel Colombise Heliport,-33.358949,-60.249377,88,SA,AR,AR-B,San Nicolás de Los Arroyos,no,,,HSN,,,
42900,AR-0478,heliport,Pachón Minera Heliport,-31.7597,-70.4128,11810,SA,AR,AR-J,"Pachón, Calingasta",no,,,HPS,,,
42901,AR-0479,heliport,Pernigotti Heliport,-27.7708,-64.2278,475,SA,AR,AR-G,La Banda,no,,,HBD,,,
42902,AR-0480,heliport,Policia De La Provincia De Mendoza Heliport,-32.8783,-68.8681,2646,SA,AR,AR-M,Mendoza,no,,,HPD,,,
42903,AR-0481,heliport,Roca Heliport,-32.06,-64.7794,3444,SA,AR,AR-X,Yacanto de Calamuchita,no,,,HYC,,,
42904,AR-0482,heliport,S.A.N.A. Heliport,-27.5494,-55.3336,905,SA,AR,AR-N,Leandro N. Alem,no,,,HLA,,,
42905,AR-0483,heliport,Austral S.A. Heliport,-52.7386,-68.5725,290,SA,AR,AR-V,Yacimiento Cañadón Alfa,no,,,HCP,,,
42906,AR-0484,closed,General Alvear Airport,-35.9783,-59.9061,164,SA,AR,AR-B,General Alvear,no,,,,,,"GAR, GAR"
42907,AR-0485,small_airport,San Patricio Airport,-34.0403,-59.6944,147,SA,AR,AR-B,Capitán Sarmiento,no,,,CSP,,,
42908,AR-0486,small_airport,La Cura Malal Airport,-34.074938,-60.140829,121,SA,AR,AR-B,Arrecifes,no,,,ACM,,,
45153,AR-0487,heliport,Cañuelas Gas SA Heliport,-35.0583,-58.7883,95,SA,AR,AR-B,Cañuelas,no,,,HGA,,,
45154,AR-0488,heliport,Colonia La Capilla Heliport,-34.9167,-58.2508,82,SA,AR,AR-B,Florencio Varela,no,,,HFV,,,
45155,AR-0489,heliport,Miguel Colombise Heliport,-33.3617,-60.2511,88,SA,AR,AR-S,San Nicolás,no,,,HSN,,,
45156,AR-0490,heliport,Piero Vara Heliport,-34.433151,-58.972485,39,SA,AR,AR-B,Pilar,no,,,HPI,,,
45157,AR-0491,heliport,Rio Cullen II Heliplatform,-52.8364,-68.1789,127,SA,AR,AR-V,Santa Cruz,no,,,HCE,,,
45162,AR-0492,small_airport,La Argentina Airport,-35.996667,-62.705278,311,SA,AR,AR-B,Trenque Lauquen,no,,,ATN,,,
46644,AR-0493,small_airport,La Paz Airport,-33.467,-67.55,,SA,AR,AR-M,La Paz,no,SAMP,,PAZ,,https://en.wikipedia.org/wiki/La_Paz_Aeroclub,
46645,AR-0494,small_airport,Colonia Sarmiento Airport,-45.582371,-68.999841,877,SA,AR,AR-U,Sarmiento,no,,,STO,,,
298878,AR-0495,small_airport,Agroaire Airport,-27.476346,-61.624434,330,SA,AR,AR-H,Gancedo,no,,,,http://guialocal.com.ar/agroaire.html,,
313007,AR-0496,small_airport,Aeroclub de El Chaltén Alf. G.N.A. Walter Omar D Anna,-49.53531,-72.51997,1279,SA,AR,AR-Z,El Chaltén,no,,,ELX,,,
313008,AR-0497,small_airport,Hipólito Yrigoyen Lago Posadas Airport,-47.565833,-71.74,,SA,AR,AR-Z,,no,,,,,,
313014,AR-0498,small_airport,Estancia La Adela Airport,-42.526064,-64.278661,,SA,AR,AR-U,Puerto Piramides,no,,,,,,
313015,AR-0499,small_airport,Punta Delgada Airport,-42.766485,-63.645458,,SA,AR,AR-U,Punta Delgada,no,,,,,,
313021,AR-0500,small_airport,Camarones Field,-44.779007,-65.719672,,SA,AR,AR-U,Camarones,no,,,,,,
313022,AR-0501,small_airport,Caleta Valdés Field,-42.454874,-63.61908,,SA,AR,AR-U,Valdés,no,,,,,,
313090,AR-0502,small_airport,Telsen,-42.383333,-66.95,,SA,AR,AR-U,,no,,,,,,
313091,AR-0503,small_airport,Gan Gan Field,-42.521363,-68.287861,,SA,AR,AR-U,,yes,,,,,,
313092,AR-0504,small_airport,Gastre Field,-42.276165,-69.221892,,SA,AR,AR-U,,no,,,,,,
313093,AR-0505,small_airport,Cushamen Field,-42.17195981,-70.666176,,SA,AR,AR-U,,no,,,,,,
313094,AR-0506,small_airport,Las Plumas Filed,-43.729305,-67.284822,,SA,AR,AR-U,,no,,,,,,
314776,AR-0507,small_airport,Estancia Cullen South Airport,-52.9435,-68.4021,120,SA,AR,AR-V,Estancia Cullen,no,,,,,,
314777,AR-0508,small_airport,Estancia Sara Airport,-53.432,-68.167,52,SA,AR,AR-V,Estancia Sara,no,,,,,,
314778,AR-0509,small_airport,Rio Chico Highway Strip,-53.642,-67.9486,26,SA,AR,AR-V,,no,,,,,,
314780,AR-0510,small_airport,Los Robles Airport,-54.069,-67.6536,102,SA,AR,AR-V,Estancia El Roble,no,,,,,,
318230,AR-0511,small_airport,Agroalvear S.R.L. Airport,-33.06833,-60.66694,104,SA,AR,AR-S,Alvear,no,,,ALV,,,
318231,AR-0512,small_airport,Arias Airport,-33.664,-62.3751,415,SA,AR,AR-X,Arias,no,,,COA,,,
318238,AR-0513,small_airport,Estancia La Alborada,-37.462706,-58.188557,209,SA,AR,AR-B,Balcarce,no,,,BLA,,,
318241,AR-0514,small_airport,Finca Cuchuy Airport,-23.04,-63.7211,928,SA,AR,AR-A,Ballivian,no,,,FCU,,,
318243,AR-0515,small_airport,Calchaqui Airport,-29.85167,-60.29194,184,SA,AR,AR-S,Calchaqui,no,,,CCI,,,
318244,AR-0516,small_airport,Stiefel Airport,-31.99472,-61.60278,232,SA,AR,AR-S,Cañada Rosquin,no,,,RST,,,
318245,AR-0517,small_airport,Fumagro Airport,-37.214729,-62.780581,364,SA,AR,AR-B,Carhue,no,,,CFU,,,
318246,AR-0518,small_airport,Establecimiento La Maria Pilar Airport,-36.488606,-63.432958,410,SA,AR,AR-L,Catrilo,no,,,CTP,,,
318247,AR-0519,small_airport,Agroservicios Airport,-33.2723,-60.5707,144,SA,AR,AR-S,Coronel Bogado,no,,,ACB,,,
318248,AR-0520,small_airport,Alfomso Mengo Airport,-32.02444,-64.27944,1781,SA,AR,AR-X,Corralito,no,,,CAM,,,
318249,AR-0521,small_airport,Lomas del Espinillo Airport,-32.08806,-64.16972,1441,SA,AR,AR-X,Corralito,no,,,CLE,,,
318250,AR-0522,small_airport,Ita Ibate Airport,-27.44833,-57.422241,223,SA,AR,AR-W,Corrientes,no,,,CII,,,
318251,AR-0523,small_airport,Aeródromo de la Estancia San Rafael,-25.04347,-58.5915,288,SA,AR,AR-P,El Espinillo,no,,,ESR,,,
318252,AR-0524,small_airport,Bernardo's Airport,-32.2506,-61.6519,290,SA,AR,AR-S,El Trébol,no,,,TDB,,,
318253,AR-0525,small_airport,Salvita Airport,-23.2128,-64.0339,928,SA,AR,AR-A,Embarcación,no,,,SLV,,,
318254,AR-0526,small_airport,El Desafio,-23.2426,-63.323,800,SA,AR,AR-A,Fortin Dragones,no,,,FDD,,,
318255,AR-0527,small_airport,Finca La Hercilia Airport,-22.6147,-63.662759,1227,SA,AR,AR-A,General Mosconi,no,,,FLH,,,
318256,AR-0528,small_airport,Kalbermatter Airport,-27.26028,-61.47444,331,SA,AR,AR-H,General Pinedo,no,,,GPK,,,
318257,AR-0529,small_airport,Estancia El Potrero Airport,-32.97472,-58.25389,88,SA,AR,AR-E,Gualeguaychu,no,,,GEP,,,
318259,AR-0530,small_airport,Plus Agroservicios Aereos S.R.L. Airport,-33.8136,-61.3357,325,SA,AR,AR-S,Hughes,no,,,HGS,,,
318260,AR-0531,small_airport,Biondi Airport],-33.2232,-62.4046,400,SA,AR,AR-X,Isla Verde,no,,,IVL,,,
318263,AR-0532,small_airport,Casajus,-33.3882,-63.3055,475,SA,AR,AR-X,La Carlota,no,,,LCC,,,
318264,AR-0533,small_airport,Don Emilio Airport,-26.73247,-64.88455,1525,SA,AR,AR-T,La Ramada De Abajo,no,,,LRE,,,
318265,AR-0534,small_airport,AeroSoluciones Airport,-24.74889,-64.235,1614,SA,AR,AR-A,Las Lajitas,no,,,LLA,,,
318266,AR-0535,small_airport,Don Alberto Airport,-35.8696,-57.8768,35,SA,AR,AR-K,Lezama,no,,,LDA,,,
318268,AR-0536,small_airport,Fumigaciones Ortega Airport,-35.275617,-61.55652,295,SA,AR,AR-B,Martinez de Hoz,no,,,DOF,,,
318269,AR-0537,small_airport,Campo San Jose Airport,-30.77778,-62.01472,331,SA,AR,AR-X,Morteros,no,,,CSJ,,,
318270,AR-0538,small_airport,Pulverizaciones Aerosur Airport,-38.576401,-58.796429,55,SA,AR,AR-B,Necochea,no,,,NPA,,,
318271,AR-0539,small_airport,Finca Toloche Airport,-25.4346,-63.8578,1040,SA,AR,AR-A,Nuestra Señora De Talavera,no,,,NST,,,
318273,AR-0540,small_airport,La Noria Agricultural Airport,-33.85696,-60.70038,255,SA,AR,AR-B,Pergamino,no,,,PEN,,,Agro Aerea La Noria
318274,AR-0541,small_airport,Servicios Aeronauticos,-37.523004,-62.452319,865,SA,AR,AR-B,Pigüé,no,,,PSA,,,
318275,AR-0542,small_airport,Estancia La Carolina Airport,-33.07558,-60.715,110,SA,AR,AR-S,Piñero,no,,,PLC,,,
318276,AR-0543,small_airport,SAS Aeroaplicaciones Airport,-24.80667,-64.18111,1498,SA,AR,AR-A,Piquete Cabado,no,,,PCA,,,
318278,AR-0544,small_airport,Vale Airport,-37.06556,-69.39556,3051,SA,AR,AR-M,Río Colorado,no,,,RCV,,,
318279,AR-0545,small_airport,Aeroagereo,-35.13588,-61.99717,327,SA,AR,AR-B,Roberts,no,,,ROB,,,
318281,AR-0546,small_airport,La Amalia,-35.10042,-62.01656,328,SA,AR,AR-B,Roberts,no,,,AMA,,,
318282,AR-0547,small_airport,BSG Airport,-34.24968,-62.67416,393,SA,AR,AR-S,Rufino,no,,,RBS,,,
318283,AR-0548,small_airport,Abelenda Airport,-35.738533,-59.76201,127,SA,AR,AR-B,Saladillo,no,,,SAB,,,
318290,AR-0549,small_airport,Vergnano Airport,-30.32012,-61.90165,314,SA,AR,AR-S,San Guillermo,no,,,SGV,,,
318297,AR-0550,small_airport,Aeroclub San Javier,-30.5559,-59.9907,90,SA,AR,AR-S,San Javier,no,,,SJR,,,
318298,AR-0551,small_airport,Chialva S. H. Airport,-32.736945,-62.531378,390,SA,AR,AR-X,San Marcos,no,,,SMS,,,
318300,AR-0552,small_airport,Santa Clara de Saguier Airport,-31.35549,-61.82983,356,SA,AR,AR-S,Santa Clara de Saguier,no,,,SCL,,,
318301,AR-0553,small_airport,San Alberto Airport,-36.592071,-64.220437,620,SA,AR,AR-L,Santa Rosa,no,,,SLP,,,
318302,AR-0554,small_airport,Cóndor del Aire Airport,-33.46587,-60.62854,199,SA,AR,AR-S,Sargento Cabral,no,,,CDA,,,
318303,AR-0555,small_airport,Fumigaciones Nando Airport,-29.77963,-62.03181,295,SA,AR,AR-G,Selva Nueva,no,,,SFN,,,
318305,AR-0556,small_airport,Establecimiento El 21 Airport,-26.8952,-62.30962,545,SA,AR,AR-G,Tintina,no,,,TEV,,,
318306,AR-0557,small_airport,Tío Pujio Airport,-32.29307,-63.40197,777,SA,AR,AR-X,Tío Pujio,no,,,TIO,,,
318307,AR-0558,small_airport,Santagiulian Airport,-38.40573,-60.29968,350,SA,AR,AR-B,Tres Arroyos,no,,,SGI,,,
318308,AR-0559,small_airport,Estancia Los Lobles Airport,-36.552913,-63.766652,459,SA,AR,AR-L,Uriburu,no,,,URL,,,
318309,AR-0560,small_airport,Estancia La Criolla Airport,-35.537034,-60.129512,160,SA,AR,AR-B,Vienticinco de Mayo,no,,,ELC,,,
318310,AR-0561,small_airport,Servicios Agroaereos Airport,-35.449205,-60.160708,165,SA,AR,AR-B,Vienticinco de Mayo,no,,,MSA,,,
318311,AR-0562,small_airport,Don Angel Airport,-33.93823,-64.40774,800,SA,AR,AR-X,Vicuña Mackenna,no,,,VMA,,,
318313,AR-0563,small_airport,Beneficios S.R.L. Airport,-33.93759,-64.415095,800,SA,AR,AR-X,Vicuña Mackenna,no,,,VMB,,,
318314,AR-0564,small_airport,Comequechen Airport,-33.93402,-64.415946,805,SA,AR,AR-X,Vicuña Mackenna,no,,,VMC,,,
318492,AR-0565,small_airport,Santa Isabel Airport,-36.23682,-66.94624,,SA,AR,AR-L,Santa Isabel,no,,,,,,
318493,AR-0566,small_airport,Limay Mahuida Airport,-37.1201,-66.704,,SA,AR,AR-L,Limay Mahuida,no,,,,,,
318495,AR-0567,small_airport,Nueva Galia Airport,-35.089382,-65.197724,,SA,AR,AR-D,Nueva Galia,no,,,,,,
318506,AR-0568,small_airport,RAIG S.A. Airport,-32.4382,-63.2893,685,SA,AR,AR-X,Villa Nueva,no,,,VNR,,,
318507,AR-0569,small_airport,Suarez Aviación Airport,-32.4272,-63.3024,700,SA,AR,AR-E,Villa Nueva,no,,,VNS,,,
318508,AR-0570,small_airport,Villa Valeria Airport,-34.35653,-64.90136,955,SA,AR,AR-X,Villa Valeria,no,,,CVV,,,
318509,AR-0571,heliport,D.P. El Vapor Heliport,-34.83467,-58.38498,91,SA,AR,AR-B,Almirante Brown,no,,,HEV,,,
318510,AR-0572,heliport,Centro Cívico Bicentenario Heliport,-31.42037,-64.173235,1306,SA,AR,AR-X,Córdoba,no,,,HBI,,,
318511,AR-0573,heliport,Superficie Heliport,-34.90046,-57.929486,22,SA,AR,AR-B,La Plata,no,,,HBT,,,
318513,AR-0574,heliport,C.A.P.E. Provincial Police Heliport,-29.4356,-66.8632,1760,SA,AR,AR-F,La Rioja,no,,,HPL,,,
318514,AR-0575,heliport,La Reserva Heliport,-34.27045,-58.90043,19,SA,AR,AR-B,Los Cardales,no,,,HLR,,,
318515,AR-0576,heliport,Cooperativa de Trabajos Portuarios Limitada Heliport,-32.71915,-60.72636,29,SA,AR,AR-S,San Martín,no,,,HPT,,,
318516,AR-0577,heliport,Edificio Tribunales Helipad,-27.7813,-64.265,738,SA,AR,AR-G,Santiago del Estero,no,,,HET,,,
318517,AR-0578,heliport,Villa La Ñata Heliport,-34.37527,-58.65576,10,SA,AR,AR-B,Tigre,no,,,HVA,,,
318945,AR-0579,small_airport,Coy Aike Airport,-51.162246,-69.487675,,SA,AR,AR-Z,Coy Aike,no,,,,,,
318946,AR-0580,small_airport,Estancia Elena Airport,-49.727768,-68.756606,,SA,AR,AR-Z,Rio Chico,no,,,,,,
321675,AR-0581,small_airport,Aeródromo de Fortin Cabo Lugones,-24.300451,-59.830954,,SA,AR,AR-P,Fortin Cabo Lugones,no,,,,,,
321676,AR-0582,small_airport,Posta Cambio a Zalazar Airport,-24.214972,-60.201023,441,SA,AR,AR-P,Posta Cambio a Zalazar,no,,,,,,Posta Cambio a Salazar
321677,AR-0583,small_airport,Aeródromo Cnel. Alfonso,-25.130442,-58.217977,,SA,AR,AR-P,Laguna Blanca,no,,,,,,
321678,AR-0584,small_airport,Aeródromo San Hilario,-25.86448,-58.672887,236,SA,AR,AR-P,Estancia Alegria,no,,,380,,,
321701,AR-0585,small_airport,Santa Elena Airport,-30.976069,-59.776894,,SA,AR,AR-E,Santa Elena,no,,,973,,https://en.wikipedia.org/wiki/Monte_Quemado_Airport,
321708,AR-0586,small_airport,Augusto Leguizamon Airport,-34.818011,-62.477107,357,SA,AR,AR-B,Ameghino,no,,,AUL,,,
321709,AR-0587,small_airport,Dutto Airport,-28.870432,-62.241535,285,SA,AR,AR-G,Bandera,no,,,ADU,,,
321710,AR-0588,small_airport,Malfatto Airport,-35.1517,-60.5056,187,SA,AR,AR-B,Bragado,no,,,BMO,,,Pulverizaciones Aereas Walter Malfatto
321711,AR-0589,small_airport,Cañada Quiroz Airport,-27.5497,-58.7175,180,SA,AR,AR-W,Corrientes,no,,,CQZ,,,
321732,AR-0590,small_airport,Malatini Airport,-35.569123,-61.368224,268,SA,AR,AR-B,Carlos Casares,no,,,CCM,,,
321733,AR-0591,small_airport,Ottaviani Airport,-35.648137,-61.350425,268,SA,AR,AR-B,Carlos Casares,no,,,CCO,,,Aeropuerto Carlos Casares Sur
321734,AR-0592,small_airport,Copetonas Airport,-38.743657,-60.553332,167,SA,AR,AR-B,Copetonas,no,,,CTA,,,
321740,AR-0593,small_airport,Don Moises Airport,-32.039622,-64.192827,1604,SA,AR,AR-X,Corralito,no,,,MOI,,,
321745,AR-0594,small_airport,Itati Airport,-27.305297,-58.313924,196,SA,AR,AR-W,Itati,no,,,CIT,,,
321746,AR-0595,small_airport,Las 2 A Airport,-34.811475,-60.51701,196,SA,AR,AR-B,Chacabuco,no,,,AII,,,
321748,AR-0596,small_airport,Daireaux Airport,-36.580056,-61.784878,380,SA,AR,AR-B,Daireaux,no,,,DRX,,,
321754,AR-0597,small_airport,Estancia Santa Elisa Airport,-29.304436,-56.881343,206,SA,AR,AR-N,Guaviravi,no,,,GSE,,,
321755,AR-0598,small_airport,Hernando Airport,-32.337145,-63.685178,925,SA,AR,AR-X,Hernando,no,,,NAN,,,Aeroclub Hernando
321763,AR-0599,small_airport,Antares Airport,-34.528223,-63.960879,505,SA,AR,AR-X,Jovita,no,,,JOC,,,
321764,AR-0600,small_airport,Lanteri Airpiort,-28.86085,-59.673331,183,SA,AR,AR-S,Lanteri,no,,,LAN,,,
321765,AR-0601,small_airport,Agroalas S.R.L. Airport,-26.870159,-64.74663,1135,SA,AR,AR-T,Las Cejas,no,,,CEJ,,,
321766,AR-0602,small_airport,Horizonte Aplicaciones Areas Airport,-32.521761,-61.550695,321,SA,AR,AR-S,Las Rosas,no,,,LRT,,,
321767,AR-0603,small_airport,Samave Airport,-33.786401,-62.127806,357,SA,AR,AR-S,Maggiolo,no,,,MAB,,,
321768,AR-0604,small_airport,El Recuerdo S.R.L. Airport,-33.10549,-63.192986,451,SA,AR,AR-X,Pescanas,no,,,PAN,,,
321769,AR-0605,small_airport,Rovere Airport,-26.783029,-60.487414,295,SA,AR,AR-H,Presidencia Roque Sáenz Peña,no,,,PSV,,,
321771,AR-0606,small_airport,Estancia La Elba,-44.5728,-65.3706,45,SA,AR,AR-U,Punta Roja,no,,,LAE,,,
321772,AR-0607,small_airport,Fumigaciones Herbinsec Airport,-35.13652,-61.99028,336,SA,AR,AR-B,Roberts,no,,,ROH,,,
321775,AR-0608,small_airport,Parajon Airport,-34.576385,-61.005748,275,SA,AR,AR-B,Saforcada,no,,,SAF,,,
323143,AR-0609,small_airport,Estancia Bahía Laura Airport,-48.331097,-66.417847,,SA,AR,AR-Z,Bahía Laura,no,,,,,,
323144,AR-0610,small_airport,Fitz Roy Airport,-47.021639,-67.241585,,SA,AR,AR-Z,Fitz Roy,no,,,,,,
323145,AR-0611,small_airport,Tres Cerros Airport,-48.138678,-67.655065,,SA,AR,AR-Z,Tres Cerros,no,,,,,,
323146,AR-0612,small_airport,Ministro Ramos Mexía Airport,-40.523752,-67.214651,,SA,AR,AR-R,Ministro Ramos Mexía,no,,,,,,
323147,AR-0613,small_airport,Arroyo de la Ventana Airport,-41.669222,-66.097071,,SA,AR,AR-R,Arroyo de la Ventana,no,,,,,,
323148,AR-0614,small_airport,Dique Florentino Ameghino Airport,-43.674928,-66.493948,,SA,AR,AR-U,Dique Florentino Ameghino,no,,,,,,
323149,AR-0615,small_airport,Arroyo Los Berros Airport,-41.438981,-66.090185,,SA,AR,AR-R,Arroyo Los Berros,no,,,,,,
324366,AR-0616,small_airport,La Caldonia Airport,-32.1306,-61.8935,365,SA,AR,AR-S,Piamonte,no,,,1063,,,
324367,AR-0617,small_airport,El Ocho Airstrip,-31.799689,-59.703579,257,SA,AR,AR-E,Tabossi,no,,,,,,
324368,AR-0618,small_airport,Timbo Airstrip,-31.8266,-59.0333,187,SA,AR,AR-E,Villaguay,no,,,,,,
324542,AR-0619,small_airport,Puerto San Antonio Este Airstrip,-40.799532,-64.864185,,SA,AR,AR-R,Puerto San Antonio Este,no,,,,,,
324544,AR-0620,small_airport,Guardia Mitre Airstrip,-40.418091,-63.663347,,SA,AR,AR-R,Guardia Mitre,no,,,,,,
324545,AR-0621,small_airport,La Sistina Airstrip,-36.974031,-62.436969,,SA,AR,AR-B,,no,,,,,,
324978,AR-0622,small_airport,Anillaco Airport,-28.795111,-66.914675,4264,SA,AR,AR-F,Anillaco,no,,,ANI,,,ANAC  2309
327561,AR-0623,small_airport,El Sauzalito Airport,-24.443851,-61.68824,558,SA,AR,AR-H,El Sauzalito,no,,,,,,
327565,AR-0624,small_airport,Ingeniero Juárez Airport,-23.904822,-61.820092,595,SA,AR,AR-P,Ingeniero Juárez,no,,,,,,
327584,AR-0625,small_airport,La Cruz Airport,-29.159962,-56.658639,219,SA,AR,AR-W,La Cruz,no,,,,,,
327585,AR-0626,small_airport,Loma Alta Airport,-29.049088,-57.081729,295,SA,AR,AR-W,,no,,,,,,
327586,AR-0627,small_airport,Itá Caabó Airport,-29.29287,-57.727213,262,SA,AR,AR-W,Estancia Itá Caabó,no,,,529,,,
327589,AR-0628,small_airport,Estancia El Cencerro Airport,-30.534775,-60.438022,164,SA,AR,AR-S,Marcelino Escalada,no,,,451,,,
327590,AR-0629,small_airport,Estancia El Pinocho,-32.564739,-58.51746,56,SA,AR,AR-E,Aldea San Antonio,no,,,496,,,
327603,AR-0630,small_airport,Estancia La Elisa Airport,-34.038888,-59.776944,154,SA,AR,AR-B,Capitan Sarmiento,no,,,578,,,
327605,AR-0631,small_airport,Estancia Los Leones Airport,-31.170558,-60.718125,125,SA,AR,AR-S,Llambi Cambel,no,,,750,,,
327611,AR-0632,small_airport,Estancia Trebolares Airport,-35.636734,-63.498798,377,SA,AR,AR-L,General Pico,no,,,938,,,
327617,AR-0633,small_airport,Rincón de Luna Airport,-28.470238,-58.249234,180,SA,AR,AR-W,Tabay,no,,,1300,,,
327621,AR-0634,small_airport,Finca Porvenir 8 Airport,-24.994562,-64.341664,1732,SA,AR,AR-A,Piquete Cabado,no,,,2800,,,
327624,AR-0635,small_airport,Cabaña Los Gatos Airport,-27.142412,-61.764272,548,SA,AR,AR-G,Gancedo,no,,,2802,,,
327625,AR-0636,small_airport,Estancia Las Marias Airport,-32.470437,-66.082103,2116,SA,AR,AR-D,Lenadro N. Alem,no,,,2809,,,
327626,AR-0637,heliport,Unidad Regional II de Polcia Heliport,-32.99354,-60.674636,131,SA,AR,AR-S,Rosario,no,,,2831,,,
327639,AR-0638,small_airport,Estancia 13 de Abril Airport,-35.515511,-61.758924,276,SA,AR,AR-B,Smith,no,,,2064,,,
327642,AR-0639,closed,Pinto Airport,-29.152266,-62.675025,328,SA,AR,AR-G,Pinto,no,,,,,,Villa General Mitre
327644,AR-0640,small_airport,Pichanal-Franzini Airport,-23.338946,-64.247126,1004,SA,AR,AR-A,Pichanal,no,,,2105,,,
327647,AR-0641,small_airport,Traill Southeast Airport,-31.922586,-61.692139,249,SA,AR,AR-S,Estancia Traill Sureste,no,,,,,,
327651,AR-0642,closed,Los Juries Airport,-28.477432,-62.1226,301,SA,AR,AR-G,Los Juries,no,,,,,,
327652,AR-0643,small_airport,El Cuadrado Airport,-28.285565,-61.764686,325,SA,AR,AR-G,Los Juries,no,,,2713,,,
333806,AR-0644,closed,Elida 2 Airstrip,-28.159984,-60.475316,215,SA,AR,AR-S,,no,,,,,,
333807,AR-0645,small_airport,Los Amores NW Airport,-28.069557,-60.00947,198,SA,AR,AR-S,Los Amores,no,,,,,,
333808,AR-0646,closed,El Amargo Airport,-28.742,-61.741233,249,SA,AR,AR-S,,no,,,,,,
333809,AR-0647,closed,Estancia Los Pocitos Airport,-28.564387,-62.524781,350,SA,AR,AR-G,Tacañitas,no,,,,,,
333810,AR-0648,closed,Dora Airport,-28.600612,-62.941232,354,SA,AR,AR-G,Colonia Dora,no,,,,,,
333811,AR-0649,closed,Pozo Cuadrado Airport,-28.915274,-57.050779,243,SA,AR,AR-W,,no,,,,,,
333812,AR-0650,small_airport,Santa Juana Airport,-28.955846,-56.742668,215,SA,AR,AR-W,,no,,,,,,
333814,AR-0651,closed,Malbrán,-29.356369,-62.451074,295,SA,AR,AR-G,Malbrán,no,,,,,,
333815,AR-0652,closed,Villa Unión Airport,-29.42218,-62.789526,248,SA,AR,AR-G,Villa Unión,no,,,,,,
333823,AR-0653,closed,Tres Lagunas Airstrip,-29.372714,-62.037477,255,SA,AR,AR-E,,no,,,,,,
333824,AR-0654,closed,Agrodistribuidora Airstrip,-29.220089,-61.760298,220,SA,AR,AR-S,Tostado,no,,,,,,
333825,AR-0655,small_airport,Estancia La Matilde Airport,-29.356949,-59.872313,174,SA,AR,AR-S,Estancia La Matilde,no,,,,,,
333831,AR-0656,small_airport,La Lola Airport,-29.261898,-59.736593,150,SA,AR,AR-S,Reconquista,no,,,,,,
339856,AR-0657,small_airport,Blondi Airport,-30.75769,-63.74818,817,SA,AR,AR-X,Cañada de Luque,no,,,CDL,,,
339864,AR-0658,small_airport,Chajari Sur Airport,-30.80228,-58.014325,226,SA,AR,AR-E,Chajari,no,,,CSU,,,
340022,AR-0659,heliport,Hospital R. Carrillo Heliport,-32.8518,-60.709189,121,SA,AR,AR-S,Granadero Baigorria,no,,,HDR,,,
340023,AR-0660,heliport,Lar de Paz S.A. Heliport,-34.776328,-58.658291,49,SA,AR,AR-B,Gonzalez Catán,no,,,HGM,,,
340024,AR-0661,heliport,Homaq Heliport,-34.557353,-59.045919,79,SA,AR,AR-B,Luján,no,,,HLH,,,
340025,AR-0662,heliport,Madero Harbour Helipad,-34.620989,-58.360764,259,SA,AR,AR-C,Buenos Aires,no,,,HMG,,,
340026,AR-0663,heliport,Nordelta Heliport,-34.439664,-58.64215,16,SA,AR,AR-B,Tigre,no,,,HNB,,,
340027,AR-0664,heliport,Heliplataforma Oceanic Champion,-52.833333,-66.416667,66,SA,AR,AR-V,Río Grande,no,,,HOC,,,
340028,AR-0665,heliport,Heliplataforma Móvil Ocean Scepter,-46.466667,-67.433333,505,SA,AR,AR-Z,Golfo San Jorge,no,,,HOS,,,
340029,AR-0666,heliport,Puerto Esperanza Heliport,-25.990346,-54.63825,509,SA,AR,AR-N,Esperanza,no,,,HPO,,,
340030,AR-0667,heliport,Heliplataforma Swiber PJW3000,-53.076495,-67.964004,118,SA,AR,AR-V,Campo Vega Pleyade,no,,,HSW,,,
340031,AR-0668,small_airport,Norberto de La Riestra Airport,-35.327705,-59.791042,126,SA,AR,AR-B,Norberto de La Riestra,no,,,NDR,,,
340036,AR-0669,small_airport,Estancia El Triángulo Airport,-36.349041,-62.226133,341,SA,AR,AR-B,Salazar,no,,,SLZ,,,Fumigaciones Wilmot
340037,AR-0670,small_airport,Hallpa Huayra Airport,-32.207863,-64.533906,1827,SA,AR,AR-X,Villa Amancay,no,,,VAY,,,
340038,AR-0671,small_airport,Las Totoritas Airport,-33.842439,-65.324836,1470,SA,AR,AR-D,Villa Mercedes,no,,,VMT,,,
341793,AR-0672,small_airport,Aerofumigaciones Bartoli Hermanos Airstrip,-33.471415,-62.327058,404,SA,AR,AR-X,Cavanagh,no,,,,,,
343211,AR-0673,small_airport,Estancia Suyai - Lago Pueyrredon Airstrip,-47.365317,-71.97239,522,SA,AR,AR-Z,Lago Posados,no,,,2605,,,
343212,AR-0674,small_airport,Mahmet Fumigaciones Aereas Airport,-35.1486,-60.5245,194,SA,AR,AR-B,Bragado,no,,,,,,
343213,AR-0675,small_airport,Agroaereo Bragado Airport,-35.1755,-60.4563,210,SA,AR,AR-B,Bragado,no,,,,,,
343214,AR-0676,small_airport,Laguna El Abuelo Airstrip,-35.24815,-60.487,210,SA,AR,AR-B,Comodoro Py,no,,,,,,
343215,AR-0677,small_airport,Cerro Vanguardia Airstrip,-48.373634,-68.107842,580,SA,AR,AR-Z,Tres Cerros,no,,,2356,,,
348363,AR-0678,heliport,Malvinas Heroes Hospital Heliport,-34.66941,-58.74199,52,SA,AR,AR-B,Merlo,no,,,,,,
348444,AR-0679,small_airport,Estancia Santa Elena Airport,-47.78901,-65.92325,144,SA,AR,AR-Z,Estancia Santa Elena,no,,,,,,
348445,AR-0680,small_airport,Estancia 8 de Julio Airport,-47.89627,-66.06144,328,SA,AR,AR-Z,Estancia 8 de Julio,no,,,,,,
348446,AR-0681,small_airport,Campamento Darwin Airport,-47.89664,-66.46093,384,SA,AR,AR-Z,Puerto Deseado,no,,,,,,
348447,AR-0682,small_airport,Estancia La Chaira Airport,-48.17187,-66.81911,443,SA,AR,AR-Z,Estancia La Chaira,no,,,,,,
348448,AR-0683,small_airport,Campamento Darwin West Airport,-47.88052,-66.47105,325,SA,AR,AR-Z,Puerto Deseado,no,,,,,,
348449,AR-0684,small_airport,Lago Escondido Airport,-54.63158,-67.7555,410,SA,AR,AR-V,Tolhuin,no,,,,,,
348451,AR-0685,small_airport,Monte Aymond Airport,-52.12706,-69.50706,538,SA,AR,AR-Z,Estancia Monte Aymond,no,,,,,,
348452,AR-0686,closed,Río Gallegos Air Base,-51.64861,-69.20314,56,SA,AR,AR-Z,Río Gallegos,no,,,,,,
348453,AR-0687,small_airport,Monte León Landing Strip,-50.28512,-69.1858,1156,SA,AR,AR-Z,Corpen Aike,no,,,,,,
348454,AR-0688,small_airport,Estancia Las Lagunas Airport,-49.72988,-68.34898,344,SA,AR,AR-Z,Estancia Las Lagunas,no,,,,,,
348455,AR-0689,small_airport,El Salado Airport,-48.72272,-67.71851,466,SA,AR,AR-Z,El Salado,no,,,,,,
348456,AR-0690,small_airport,Río Seco Airport,-48.53148,-67.20996,292,SA,AR,AR-Z,Magallanes,no,,,,,,
348457,AR-0691,small_airport,Laguna Flamenco Airport,-48.38114,-66.83524,88,SA,AR,AR-Z,Deseado,no,,,,,,
348458,AR-0692,small_airport,Laguna Salada Airport,-48.4233,-66.83072,231,SA,AR,AR-Z,Deseado,no,,,,,,
348459,AR-0693,small_airport,Punta Mercedes Airport,-48.38884,-66.4837,85,SA,AR,AR-Z,Deseado,no,,,,,,
348460,AR-0694,small_airport,Punta Mercedes West Airport,-48.42077,-66.65689,94,SA,AR,AR-Z,Deseado,no,,,,,,
348461,AR-0695,small_airport,Cabo Tres Puntas Airport,-47.12832,-66.06579,471,SA,AR,AR-Z,Deseado,no,,,,,,
348462,AR-0696,small_airport,Estancia La Estrella Airport,-47.31099,-65.9749,407,SA,AR,AR-Z,Deseado,no,,,,,,
348463,AR-0697,small_airport,Tellier Airport,-47.59579,-66.07211,371,SA,AR,AR-Z,Tellier,no,,,,,,
348464,AR-0698,small_airport,Estancia El Polvorin Airport,-47.11292,-66.48299,526,SA,AR,AR-Z,Deseado,no,,,,,,
348465,AR-0699,small_airport,Mazaredo Airport,-47.07713,-66.69364,220,SA,AR,AR-Z,Deseado,no,,,,,,
348466,AR-0700,small_airport,La Floradora Airport,-47.11304,-66.80995,584,SA,AR,AR-Z,Deseado,no,,,,,,
348467,AR-0701,small_airport,Manantiales Behr Compressor Plant Airport,-45.55715,-67.66875,2103,SA,AR,AR-U,Escalante,no,,,,,,
348468,AR-0702,small_airport,Gravina Peninsula Airport,-45.15064,-66.49068,80,SA,AR,AR-U,Escalante,no,,,,,,
348469,AR-0703,small_airport,Garayalde Airport,-44.70351,-66.64073,1461,SA,AR,AR-U,Garayalde,no,,,,,,
348470,AR-0704,small_airport,Estancia La Maciega Airport,-44.45854,-65.60563,620,SA,AR,AR-U,Florentino Ameghino,no,,,,,,
348471,AR-0705,small_airport,La Lonja Airport,-43.90377,-65.70839,903,SA,AR,AR-U,Florentino Ameghino,no,,,,,,
348472,AR-0706,small_airport,Punta Ninfas Airport,-42.97667,-64.3528,241,SA,AR,AR-U,Rawson,no,,,,,,
348473,AR-0707,small_airport,Punta Mejillón Airport,-40.98547,-64.17166,83,SA,AR,AR-R,Adolfo Alsina,no,,,,,,
348474,AR-0708,small_airport,Pico Sayago Airport,-42.815058,-64.026432,181,SA,AR,AR-U,Biedma,no,,,,,,
348475,AR-0709,small_airport,Haras Wassermann Airport,-40.59622,-62.19203,10,SA,AR,AR-B,Bahía San Blas,no,,,,,,
348476,AR-0710,small_airport,Estancia El Reducto Airport,-39.7964,-62.31613,16,SA,AR,AR-B,Villarino,no,,,,,,
348477,AR-0711,heliport,Puerto Belgrano Naval Base Heliport,-38.88875,-62.10864,7,SA,AR,AR-B,Puerto Belgrano,no,,,,,,
348638,AR-0712,small_airport,Campamento Jorge Cepernic Airport,-50.30009,-70.15045,1270,SA,AR,AR-Z,Corpen Aike,no,,,,,,
348639,AR-0713,small_airport,Las Horquetas Airport,-51.39524,-70.23175,410,SA,AR,AR-Z,Güer Aike,no,,,,,,
348640,AR-0714,small_airport,Rospentek Airport,-51.66915,-72.13719,591,SA,AR,AR-Z,Güer Aike,no,,,,,,
348641,AR-0715,small_airport,Estancia Tapi Aike Airport,-51.05038,-71.81291,971,SA,AR,AR-Z,Güer Aike,no,,,,,,
348642,AR-0716,small_airport,Fuentes de Coyle Airport,-51.03431,-71.48158,932,SA,AR,AR-Z,Güer Aike,no,,,,,,
348643,AR-0717,small_airport,Estancia Río Bote Airport,-50.26132,-71.72777,581,SA,AR,AR-Z,Lago Argentino,no,,,,,,
348644,AR-0718,small_airport,Gendarme Barreto West Airport,-50.27839,-71.04281,823,SA,AR,AR-Z,Lago Argentino,no,,,,,,
348645,AR-0719,small_airport,Gendarme Barreto Airport,-50.28758,-70.90429,981,SA,AR,AR-Z,Lago Argentino,no,,,,,,
348646,AR-0720,small_airport,Chucuruc Aike Airport,-50.10765,-69.38463,144,SA,AR,AR-Z,Corpen Aike,no,,,,,,
348647,AR-0721,small_airport,Estancia La Julia Airport,-49.58133,-69.59216,299,SA,AR,AR-Z,Corpen Aike,no,,,,,,
348648,AR-0722,small_airport,Casa Riera Airport,-48.40504,-70.56118,1470,SA,AR,AR-Z,Río Chico,no,,,,,,
348649,AR-0723,small_airport,Estancia Silvina Airport,-48.35107,-70.80247,1644,SA,AR,AR-Z,Río Chico,no,,,,,,
348650,AR-0724,small_airport,Yacimiento el Valle Lago del Desierto Airport,-46.71752,-68.30155,814,SA,AR,AR-Z,Deseado,no,,,,,,Koluel Kayke
348749,AR-0725,small_airport,Stroeder Southeast Airport,-40.20968,-62.60485,92,SA,AR,AR-B,Stroeder,no,,,,,,
349354,AR-0726,small_airport,Bahía de los Moros Airport,-38.51425,-58.47415,60,SA,AR,AR-B,Lobería,no,,,,,,
349355,AR-0727,small_airport,Quequén Airport,-38.505,-58.69127,75,SA,AR,AR-B,Quequén,no,,,,,,
349356,AR-0728,small_airport,Campomar Airport,-38.64912,-59.00613,49,SA,AR,AR-B,Necochea,no,,,,,,
350009,AR-0729,small_airport,Aeródromo Itatí,-27.288045,-58.244662,207,SA,AR,AR-W,Itati,no,,,CTI,,,
350937,AR-0730,small_airport,El Chaltén North Airport,-49.27908,-72.88582,1366,SA,AR,AR-Z,El Chaltén,no,,,,,,
351892,AR-0731,heliport,San Fernando / Paraná Miní Heliport,-34.171068,-58.510855,16,SA,AR,AR-B,Río Paraná Miní,no,,,HMH,,,
354551,AR-0732,heliport,Hospital helipad,-32.911775,-60.681374,,SA,AR,AR-S,Rosario,no,,,,,,
354556,AR-0733,heliport,PNA Heliport,-32.943861,-60.632,46,SA,AR,AR-S,Rosario,no,,,,,,
354557,AR-0734,closed,Santa Fé City Airport,-31.659444,-60.814722,66,SA,AR,AR-S,Santa Fé,no,,,,,https://en.wikipedia.org/wiki/Santa_F%C3%A9_Airport,SAFE
429702,AR-0735,small_airport,Estancia La Pastosa Airport,-42.76575,-63.74213,,SA,AR,AR-U,Punta Delgada,no,,,,,,
5837,AR-0736,small_airport,Ushuaia Aeroclub Airport,-54.8227,-68.3043,19,SA,AR,AR-V,Ushuaia,no,SAWO,,EAU,https://www.aeroclubushuaia.com/,https://en.wikipedia.org/wiki/Ushuaia_Aeroclub,Ushuaia Naval Air Base
517209,AR-0737,small_airport,Aristóbulo del Valle Aeroclub,-27.138559,-54.887205,1542,SA,AR,AR-N,Aristóbulo del Valle,no,,,,,,Los Pioneros
553521,AR-0738,small_airport,Ingenio San Isidro airstrip,-24.68473,-65.017047,695,SA,AR,AR-A,General Güemes City,no,,,,,,"Ingenio, San, Isidro, Airstrip, Pista,"
298325,CSA,small_airport,Aerocampo CSA airport,-31.66145444,-63.27713013,630,SA,AR,AR-X,Calchin,no,CSA,,CSA,,,
42797,LCP,small_airport,Loncopue Airport,-38.081902,-70.643898,3627,SA,AR,AR-Q,Loncopue,no,,LCP,LCP,,,SA18
13,SA01,small_airport,Cachi Airport,-25.10499954,-66.15720367,8232,SA,AR,AR-A,Cachi,no,SA01,,CCS,,,SA01
14,SA02,small_airport,Cafayate Airport,-26.056101,-65.936897,5375,SA,AR,AR-A,Cafayate,no,,,CAF,,https://es.wikipedia.org/wiki/Aer%C3%B3dromo_Gilberto_Lavaque,"SA02, Gilberto Lavaque"
15,SA03,small_airport,Villa Minetti Airport,-28.6201,-61.6038,246,SA,AR,AR-S,Villa Minetti,no,SA03,,MIN,,,SA03
16,SA04,small_airport,Isla Martin Garcia Airport,-34.1821,-58.2469,6,SA,AR,AR-B,Isla Martin Garcia,no,SAAK,,MGI,,https://en.wikipedia.org/wiki/Mart%C3%ADn_Garc%C3%ADa_Island_Airport,SAAK
17,SA05,small_airport,Bell Ville Airport,-32.6599,-62.702,429,SA,AR,AR-X,Bell Ville,no,SA05,,BEL,,,SA05
18,SA06,small_airport,Santa Rita Airport,-35.8283,-60.1467,177,SA,AR,AR-B,Saladillo,no,SA06,,SSR,,,SA06
19,SA07,small_airport,El Porton Airport,-37.19432,-69.612619,2853,SA,AR,AR-Q,Buta Ranquil,no,SA07,,BRQ,,,SA07
20,SA10,small_airport,Aeródromo Estancia Don Panos,-26.2959,-59.5353,262,SA,AR,AR-H,Presidencia Roca,yes,SA10,,PDP,,,SA10
21,SA11,small_airport,Campo Arenal Airport,-27.0723,-66.586098,7622,SA,AR,AR-K,Campo Arenal,no,,,CAL,,https://en.wikipedia.org/wiki/Campo_Arenal_Aerodrome,SA11
22,SA12,small_airport,Quemu Quemu Airport,-36.0587,-63.6313,396,SA,AR,AR-L,Quemu Quemu,no,SA12,,MUQ,,,SA12
23,SA13,small_airport,Estancia La Estrella Airport,-37.559399,-58.666,456,SA,AR,AR-B,Tandil,no,SA13,,BLE,,,"SA13, SA2P, Balcarce Estancia La Estrella"
24,SA14,small_airport,Miramar Airport,-38.2271,-57.8697,42,SA,AR,AR-B,Miramar,no,SAEM,MJR,IRA,,https://en.wikipedia.org/wiki/Miramar_Airport,SA14
35329,SA15,small_airport,Lago Fagnano North Airport,-54.499699,-67.173103,600,SA,AR,AR-V,Toluhin,no,SA15,,THN,,https://en.wikipedia.org/wiki/Tolhuin_Lago_Fagnano_Airport,"SA15, Kaiken"
25,SA16,small_airport,La Puntilla Airport,-32.962799,-68.873703,3091,SA,AR,AR-M,La Puntilla,no,SA16,,DOP,http://www.aeroclubmendoza.com.ar/,https://es.wikipedia.org/wiki/Aeroclub_Mendoza,SA16
26,SA17,small_airport,Rio Cuarto Aeroclub Airport,-33.16059875,-64.33820343,1423,SA,AR,AR-X,Rio Cuarto,no,SA17,,CUA,,,SA17
35330,SA19,small_airport,Puerto Deseado West Airport,-47.7201004,-65.93240356,271,SA,AR,AR-Z,Puerto Deseado,no,SA19,,DES,,,SA19
28,SA20,small_airport,Loma La Lata Airport,-38.413799,-68.737297,1328,SA,AR,AR-Q,Neuquen,no,,,OMA,,,SA20
29,SA21,small_airport,Veinticinco De Mayo Airport,-37.80979919,-67.65930176,1138,SA,AR,AR-L,Colonia Veinticinco de Mayo,no,SA21,,MAO,,,SA21
30,SA22,small_airport,Santa Victoria Airport,-22.28569984,-62.71369934,918,SA,AR,AR-A,Salta,no,SA22,,VIT,,,SA22
31,SA23,small_airport,Apóstoles Airport,-27.90320015,-55.76549912,581,SA,AR,AR-N,Apóstoles,no,SA23,,APO,,,SA23
32,SA24,small_airport,Calilegua Airport,-23.7819,-64.749496,1449,SA,AR,AR-Y,Calilegua,no,SA24,,CLI,,https://es.wikipedia.org/wiki/Aer%C3%B3dromo_de_Calilegua,SA24
33,SA25,small_airport,Cañadon Seco Airport,-46.539,-67.5639,295,SA,AR,AR-Z,Cañadon Seco,no,SA25,,CDS,,https://es.wikipedia.org/wiki/Aer%C3%B3dromo_Caleta_Olivia,SA25
34,SA26,small_airport,Bella Vista Airport,-28.5262,-59.0385,180,SA,AR,AR-W,Bella Vista,no,SA26,,BTA,,,SA26
35331,SA27,small_airport,Puerto Rosales Airport,-38.89709854,-62.01029968,16,SA,AR,AR-B,Puerto Rosales,no,SA27,,,,,SA27
36,SA29,small_airport,Choele Choel Airport,-39.28639984,-65.61029816,642,SA,AR,AR-R,Choele Choel,no,SA29,,OEL,,,SA29
37,SA30,closed,Colonia Catriel Airport,-37.91019821,-67.83499908,1026,SA,AR,AR-R,Colonia Catriel,no,,,,,https://en.wikipedia.org/wiki/Colonia_Catriel_Airport,"SA30, SA0U, SA30, CCT, CLT"
38,SA31,small_airport,San Nicolas de los Arroyos Airport,-33.3907,-60.1957,98,SA,AR,AR-B,San Nicolas,no,SA31,,SNY,,,SA31
39,SA32,small_airport,Venado Tuerto Airport,-33.6818,-61.9564,367,SA,AR,AR-S,Venado Tuerto,no,SAFV,,VNO,,https://es.wikipedia.org/wiki/Aer%C3%B3dromo_Municipal_Tomas_B._Kenny,SA32
40,SA33,small_airport,Comandante Luis Piedrabuena Airport,-49.9951,-68.9531,78,SA,AR,AR-Z,Comandante Luis Piedrabuena,no,SA33,,LPB,,https://es.wikipedia.org/wiki/Aer%C3%B3dromo_de_Comandante_Luis_Piedrabuena,SA33
41,SA34,small_airport,Trelew Aeroclub Airport,-43.2356,-65.3241,127,SA,AR,AR-U,Trelew,no,SA34,,TRW,,https://es.wikipedia.org/wiki/Aeroclub_Trelew,SA34
42,SA35,small_airport,Andalgalá Airport,-27.631701,-66.3508,2952,SA,AR,AR-K,Andalgalá,no,SA35,,AND,,https://es.wikipedia.org/wiki/Aer%C3%B3dromo_de_Andalgal%C3%A1,SA35
43,SA36,small_airport,Saladillo Airport,-35.604891,-59.816513,147,SA,AR,AR-B,Saladillo,no,SA36,,SDL,,,SA36
44,SA38,small_airport,Las Lajas Airport,-38.538898,-70.337097,2788,SA,AR,AR-Q,Las Lajas,no,SA38,,LLJ,,https://es.wikipedia.org/wiki/Aer%C3%B3dromo_Las_Lajas,SA38
45,SA39,small_airport,Jujuy Aeroclub Airport,-24.23649979,-65.26909637,4047,SA,AR,AR-Y,San Salvador de Jujuy,no,SA39,,JJA,,,SA39
46,SA40,small_airport,San Juan Aeroclub Airport,-31.60280037,-68.54730225,2079,SA,AR,AR-J,San Juan,no,SA40,,SJA,,,SA40
35336,SA41,small_airport,Aeródromo El Colorado,-26.316687,-59.339764,269,SA,AR,AR-P,El Colorado,no,SA41,,,,,SA41
47,SA42,small_airport,Santa Maria Airport,-26.67340088,-66.02400208,5904,SA,AR,AR-K,Santa Maria,no,SA42,,SMC,,,SA42
48,SA44,small_airport,Londres/Belén Airport,-27.70789909,-67.0951004,3936,SA,AR,AR-K,Londres/Belén,no,SA44,,BLN,,,SA44
49,SA45,small_airport,Frias Airport,-28.63439941,-65.10919952,1082,SA,AR,AR-G,Frias,no,SA45,,FRS,,,SA45
35332,SA46,small_airport,Fiambala Airport,-27.6422,-67.624702,5029,SA,AR,AR-K,Fiambala,no,SA46,,2380,,,SA46
32243,SAAA,small_airport,San Antonio de Areco Airport,-34.2214,-59.4422,98,SA,AR,AR-B,San Antonio de Areco,no,SAAA,,SNT,,https://en.wikipedia.org/wiki/San_Antonio_de_Areco_Airport,
5764,SAAC,medium_airport,Comodoro Pierrestegui Airport,-31.2969,-57.9966,112,SA,AR,AR-E,Concordia,no,SAAC,COC,DIA,,https://en.wikipedia.org/wiki/Comodoro_Pierrestegui_Airport,
5765,SAAG,medium_airport,Gualeguaychu Airport,-33.005567,-58.612833,75,SA,AR,AR-E,Gualeguaychu,no,SAAG,GHU,GUA,,https://en.wikipedia.org/wiki/Gualeguaych%C3%BA_Airport,
30303,SAAI,small_airport,Punta Indio Naval Air Base,-35.353298,-57.290001,49,SA,AR,AR-B,Veronica,no,SAAI,,PDI,,https://en.wikipedia.org/wiki/Punta_Indio_Naval_Air_Base,
5766,SAAJ,closed,Junin Airport,-34.546359,-60.930487,262,SA,AR,AR-B,Junin,no,,,,,https://en.wikipedia.org/wiki/Jun%C3%ADn_Airport,"SAAJ, SAAJ, JNI, NIN"
32244,SAAM,closed,Mazaruca Airport,-33.596001,-59.266998,20,SA,AR,AR-E,Puerto Ibicuy/Mazuraca,no,,,,,,"SAAM, SAAM"
5767,SAAN,small_airport,Pergamino Airport,-33.919,-60.648,236,SA,AR,AR-B,Pergamino,no,SAAN,,PER,,https://en.wikipedia.org/wiki/Pergamino_Aeroclub,
5768,SAAP,medium_airport,General Urquiza Airport,-31.7948,-60.4804,242,SA,AR,AR-E,Parana,yes,SAAP,PRA,PAR,,https://en.wikipedia.org/wiki/General_Urquiza_Airport,
5769,SAAR,medium_airport,Rosario Islas Malvinas International Airport,-32.9036,-60.785,85,SA,AR,AR-S,Rosario,yes,SAAR,ROS,ROS,,https://en.wikipedia.org/wiki/Rosario_International_Airport,Fisherton Airport
30530,SAAU,small_airport,Villaguay Airport,-31.855,-59.0756,131,SA,AR,AR-E,Villaguay,no,SAAU,,VIG,,https://en.wikipedia.org/wiki/Villaguay_Aerodrome,
5770,SAAV,medium_airport,Sauce Viejo Airport,-31.7117,-60.8117,55,SA,AR,AR-S,Santa Fe,yes,SAAV,SFN,SVO,,https://en.wikipedia.org/wiki/Sauce_Viejo_Airport,
5771,SABE,large_airport,Jorge Newbery Airpark,-34.5592,-58.4156,18,SA,AR,AR-C,Buenos Aires,yes,SABE,AEP,AER,,https://en.wikipedia.org/wiki/Aeroparque_Jorge_Newbery,
5772,SACA,small_airport,Captain D Omar Darío Gelardi Airport,-31.4419,-64.258202,1594,SA,AR,AR-X,Córdoba,no,SACA,,FMA,,https://en.wikipedia.org/wiki/Capit%C3%A1n_Omar_Dar%C3%ADo_Gerardi_Airport,Area de Material
30055,SACC,small_airport,La Cumbre Airport,-31.0058,-64.531898,3733,SA,AR,AR-X,La Cumbre,no,SACC,LCM,CUM,,https://en.wikipedia.org/wiki/La_Cumbre_Airport,
29806,SACD,small_airport,Coronel Olmedo Airport,-31.487499,-64.141403,1416,SA,AR,AR-X,Cordoba,no,SACD,,EDO,,https://en.wikipedia.org/wiki/Coronel_Olmedo_Airport,
29803,SACE,small_airport,Escuela de Aviación Militar (Military Aviation School) Airport,-31.444223,-64.283377,1646,SA,AR,AR-X,Córdoba,no,SACE,,ESC,,https://en.wikipedia.org/wiki/Escuela_de_Aviaci%C3%B3n_Militar_Airport,
41546,SACI,small_airport,Pilar Airport,-31.68199921,-63.86380005,1072,SA,AR,AR-X,Pilar,no,SACI,,PIL,,,
39059,SACL,small_airport,Laguna Larga Airport,-31,-63,1013,SA,AR,AR-X,Laguna Larga,no,SACL,,LRG,,,
41547,SACM,small_airport,Villa General Mitre Airport,-30.7006,-64.043098,1760,SA,AR,AR-X,Villa General Mitre,no,SACM,,VGM,,https://en.wikipedia.org/wiki/Villa_General_Mitre_Airport,
39060,SACN,small_airport,Ascochinga Airport,-30.96792,-64.27774,677,SA,AR,AR-X,Ascochinga,no,SACN,,NGA,,https://en.wikipedia.org/wiki/Ascochinga_Airport,
5773,SACO,medium_airport,Ingeniero Ambrosio Taravella Airport,-31.323601,-64.208,1604,SA,AR,AR-X,Cordoba,yes,SACO,COR,CBA,,https://en.wikipedia.org/wiki/Ingeniero_Ambrosio_L.V._Taravella_International_Airport,
39061,SACP,closed,Chepes Airport,-31.356142,-66.591888,714,SA,AR,AR-F,Chepes,no,,,,,,"CHE, SACP"
39062,SACQ,small_airport,Monte Quemado Airport,-25.783563,-62.82884,722,SA,AR,AR-G,Monte Quemado,no,SACQ,,MTQ,,https://en.wikipedia.org/wiki/Monte_Quemado_Airport,
41548,SACS,small_airport,Villa De Soto Airport,-30.875419,-64.99288,2013,SA,AR,AR-X,Villa de Soto,no,SACS,,SOT,,https://en.wikipedia.org/wiki/Villa_de_Soto_Airport,
5774,SACT,closed,Chamical Airport,-30.34530067,-66.29360198,1502,SA,AR,AR-F,Gobernador Gordillo,no,,,,,,"SACT, SACT, GOR"
39063,SACV,small_airport,Villa Maria Airport,-32.38940048,-63.25859833,672,SA,AR,AR-X,Villa Maria del Rio Seco,no,SAOI,,MRA,,,
29733,SADD,closed,Don Torcuato Airport,-34.4981,-58.604198,20,SA,AR,AR-B,Don Torcuato,no,,,,,https://en.wikipedia.org/wiki/Don_Torcuato,"SADD, SADD, DOT"
5775,SADF,medium_airport,San Fernando Airport,-34.4532,-58.5896,10,SA,AR,AR-B,San Fernando,no,SADF,,FDO,,https://en.wikipedia.org/wiki/San_Fernando_Airport_(Argentina),San Fernando International Airport
41549,SADG,closed,Monte Grande Airport,-34.805599,-58.492001,30,SA,AR,AR-B,Monte Grande,no,,,,,,"SADG, SADG, MGE"
5776,SADJ,small_airport,Mariano Moreno Airport,-34.5606,-58.7896,105,SA,AR,AR-B,General Sarmiento,no,SADJ,,ENO,,https://en.wikipedia.org/wiki/Mariano_Moreno_Airport,
5777,SADL,medium_airport,La Plata Airport,-34.9722,-57.8947,72,SA,AR,AR-B,La Plata,no,SADL,LPG,PTA,,https://en.wikipedia.org/wiki/La_Plata_Airport,
5778,SADM,small_airport,Morón Airport,-34.6763,-58.6428,95,SA,AR,AR-B,Morón,no,SADM,,MOR,,https://en.wikipedia.org/wiki/Mor%C3%B3n_Airport_and_Air_Base,
5779,SADO,small_airport,Campo de Mayo Military Airport,-34.5344,-58.6717,78,SA,AR,AR-B,Campo de Mayo,no,SADO,,CPO,,https://en.wikipedia.org/wiki/Campo_de_Mayo_Airport,
5780,SADP,medium_airport,El Palomar Airport,-34.6099,-58.6126,59,SA,AR,AR-B,El Palomar,no,SADP,EPA,PAL,,https://en.wikipedia.org/wiki/El_Palomar_Airport,
30313,SADQ,small_airport,Quilmes Airport,-34.7064,-58.2444,6,SA,AR,AR-B,Quilmes,no,SADQ,,ILM,,https://en.wikipedia.org/wiki/Quilmes_Airport,
41550,SADR,closed,Merlo Airport,-34.680283,-58.742658,49,SA,AR,AR-B,Merlo,no,,,,,,"SADR, SADR, MER"
30377,SADS,closed,San Justo Airport,-34.732372,-58.595564,62,SA,AR,AR-B,San Justo,no,,,,,,"Aeroclub Argentino, SADS, JUS"
30122,SADZ,small_airport,Matanza Airport,-34.728367,-58.500855,9,SA,AR,AR-B,La Matanza,no,SADZ,,MAT,http://www.cua-argentina.com.ar/index.php,https://en.wikipedia.org/wiki/Univ._R%C3%ADo_Matanza_Aeroclub,Aeroclub Universidad Río Matanza
39064,SAEA,small_airport,General Acha Airport,-37.400799,-64.612801,908,SA,AR,AR-L,General Acha,no,SAEA,,ACH,,https://en.wikipedia.org/wiki/General_Acha_Airport,
39065,SAEL,small_airport,Las Flores Airport,-36.0672,-59.1042,111,SA,AR,AR-B,Las Flores,no,SAEL,,FLO,,https://en.wikipedia.org/wiki/Las_Flores_Airport,
39066,SAET,small_airport,Ñanco Lauquen Airport,-35.9715,-62.7724,301,SA,AR,AR-B,Trenque Lauquen,no,SAET,,TQL,,https://en.wikipedia.org/wiki/%C3%91anco_Lauquen_Airport,
5781,SAEZ,large_airport,Minister Pistarini International Airport,-34.8222,-58.5358,67,SA,AR,AR-B,Buenos Aires (Ezeiza),yes,SAEZ,EZE,EZE,http://www.aa2000.com.ar/index.php,https://en.wikipedia.org/wiki/Ministro_Pistarini_International_Airport,"BUE, Ezeiza"
39067,SAFR,small_airport,Rafaela Airport,-31.2825,-61.5017,325,SA,AR,AR-S,Rafaela,no,SAFR,RAF,RLA,,https://en.wikipedia.org/wiki/Rafaela_Aerodrome,
5782,SAHC,small_airport,Chos Malal Airport,-37.444698,-70.222504,2788,SA,AR,AR-Q,Chos Malal,no,SAHC,HOS,CHM,,https://en.wikipedia.org/wiki/Chos_Malal_Airport,
39068,SAHE,small_airport,Caviahue Airport,-37.851398,-71.009201,5435,SA,AR,AR-Q,Lafontaine,no,SAHE,CVH,CVH,,https://en.wikipedia.org/wiki/Caviahue_Airport,
5783,SAHR,small_airport,Dr. Arturo H. Illia Airport,-39.000702,-67.620499,852,SA,AR,AR-R,General Roca,no,SAHR,GNR,GNR,,https://en.wikipedia.org/wiki/Dr._Arturo_Umberto_Illia_Airport,
5784,SAHS,medium_airport,Rincon De Los Sauces Airport,-37.390598,-68.904198,1968,SA,AR,AR-Q,Rincon de los Sauces,no,SAHS,RDS,RIN,,https://en.wikipedia.org/wiki/Rinc%C3%B3n_de_los_Sauces_Airport,
5785,SAHZ,medium_airport,Zapala Airport,-38.975498,-70.113602,3330,SA,AR,AR-Q,Zapala,no,SAHZ,APZ,ZAP,,https://en.wikipedia.org/wiki/Zapala_Airport,
29889,SAMA,small_airport,General Alvear Airport,-35.058899,-67.692802,1489,SA,AR,AR-M,General Alvear,no,SAMA,,GNA,,https://en.wikipedia.org/wiki/General_Alvear_Airport,
41551,SAMC,small_airport,Cristo Redentor Airport,-32.80730057,-70.06819916,10477,SA,AR,AR-M,Cristo Redentor,no,SAMC,,CRI,,,
5786,SAME,medium_airport,El Plumerillo Airport,-32.83169937,-68.79290009,2310,SA,AR,AR-M,Mendoza,yes,SAME,MDZ,DOZ,,https://en.wikipedia.org/wiki/Governor_Francisco_Gabrielli_International_Airport,
41552,SAMH,small_airport,Valle Hermoso Airport,-35.14619827,-70.20539856,2500,SA,AR,AR-M,Valle Hermoso,no,SAMH,,VHE,,,
41553,SAMJ,small_airport,Jachal Airport,-30.248242,-68.764791,3790,SA,AR,AR-J,Jachal,no,SAMJ,,JAC,,https://en.wikipedia.org/wiki/J%C3%A1chal_Airport,
41554,SAML,small_airport,Punta De Vacas Airport,-32.854599,-69.760498,7906,SA,AR,AR-M,Punta de Vacas,no,SAML,,PDV,,https://en.wikipedia.org/wiki/Punta_de_Vacas_Heliport,
5787,SAMM,medium_airport,Comodoro D.R. Salomón Airport,-35.493599,-69.574303,4685,SA,AR,AR-M,Malargue,no,SAMM,LGS,MLG,,https://en.wikipedia.org/wiki/Comodoro_D._Ricardo_Salom%C3%B3n_Airport,
30062,SAMP,small_airport,La Paz Airport,-30.7833,-59.6,200,SA,AR,AR-E,La Paz,no,,,LPZ,,,
30130,SAMQ,small_airport,Mendoza Airpark,-32.86529922,-68.87190247,2694,SA,AR,AR-M,Mendoza,no,SAMQ,,MAE,,,
5788,SAMR,medium_airport,Suboficial Ay Santiago Germano Airport,-34.588299,-68.4039,2470,SA,AR,AR-M,San Rafael,yes,SAMR,AFA,SRA,,https://en.wikipedia.org/wiki/San_Rafael_Airport_(Argentina),
41555,SAMS,small_airport,San Carlos Airport,-33.7757,-69.053703,3050,SA,AR,AR-M,San Carlos,no,SAMS,,CAR,,https://en.wikipedia.org/wiki/San_Carlos_Airport_(Mendoza),
32247,SAMU,small_airport,Uspallata Airport,-32.538898,-69.345802,6525,SA,AR,AR-M,Uspallata,no,SAMU,,USP,,https://en.wikipedia.org/wiki/Uspallata_Airport,
5789,SANC,medium_airport,Coronel Felipe Varela International Airport,-28.593117,-65.7512,1522,SA,AR,AR-K,Catamarca,yes,SANC,CTC,CAT,,https://en.wikipedia.org/wiki/Coronel_Felipe_Varela_International_Airport,
5790,SANE,medium_airport,Vicecomodoro Angel D. La Paz Aragonés Airport,-27.76555634,-64.30999756,656,SA,AR,AR-G,Santiago del Estero,yes,SANE,SDE,SDE,,https://en.wikipedia.org/wiki/Santiago_del_Estero_Airport,
39069,SANH,small_airport,Las Termas Airport,-27.4737,-64.905502,270,SA,AR,AR-G,Rio Hondo,no,SANH,,RHO,,,RHD
5791,SANI,closed,Tinogasta Airport,-28.037801,-67.580299,3968,SA,AR,AR-K,Tinogasta,no,,,,,,"SANI, SANI, TIN"
5792,SANL,medium_airport,Capitan V A Almonacid Airport,-29.381599,-66.795799,1437,SA,AR,AR-F,La Rioja,yes,SANL,IRJ,LAR,,https://en.wikipedia.org/wiki/Capit%C3%A1n_Vicente_Almandos_Almonacid_Airport,
5793,SANO,small_airport,Chilecito Airport,-29.2239,-67.438904,3099,SA,AR,AR-F,Chilecito,no,SANO,,ITO,,https://en.wikipedia.org/wiki/Chilecito_Airport,
318304,SANR,medium_airport,Termas de Río Hondo international Airport,-27.4966,-64.93595,935,SA,AR,AR-G,Termas de Río Hondo,yes,SANR,RHD,TRH,,https://en.wikipedia.org/wiki/Las_Termas_Airport,
5794,SANT,medium_airport,Teniente Benjamin Matienzo Airport,-26.8409,-65.104897,1493,SA,AR,AR-T,San Miguel de Tucumán,yes,SANT,TUC,TUC,,https://en.wikipedia.org/wiki/Benjam%C3%ADn_Matienzo_International_Airport,
5795,SANU,medium_airport,Domingo Faustino Sarmiento Airport,-31.571501,-68.418198,1958,SA,AR,AR-J,San Juan,yes,SANU,UAQ,JUA,,https://en.wikipedia.org/wiki/Domingo_Faustino_Sarmiento_Airport,
29769,SANW,small_airport,Ceres Airport,-29.872292,-61.927925,285,SA,AR,AR-S,Ceres,no,SANW,CRR,ERE,,https://en.wikipedia.org/wiki/Ceres_Airport,
5796,SAOC,medium_airport,Area De Material Airport,-33.085098,-64.261299,1380,SA,AR,AR-X,Rio Cuarto,no,SAOC,RCU,TRC,,https://en.wikipedia.org/wiki/Las_Higueras_Airport,
5797,SAOD,medium_airport,Villa Dolores Airport,-31.9452,-65.146301,1847,SA,AR,AR-X,Villa Dolores,no,SAOD,VDR,LDR,,https://en.wikipedia.org/wiki/Villa_Dolores_Airport,
39070,SAOE,small_airport,Rio Tercero Airport,-32.173302,-64.088303,1246,SA,AR,AR-X,Rio Tercero,no,SAOE,,RCR,,https://en.wikipedia.org/wiki/R%C3%ADo_Tercero_Airport,
5798,SAOL,small_airport,La Quiaca Airport,-22.165264,-65.569918,11414,SA,AR,AR-Y,La Quiaca,no,SASQ,,IAC,,https://en.wikipedia.org/wiki/La_Quiaca_Airport,
5799,SAOM,small_airport,Marcos Juarez Airport,-32.6836,-62.157801,360,SA,AR,AR-X,Marcos Juarez,no,SAOM,,MJZ,,https://en.wikipedia.org/wiki/Marcos_Ju%C3%A1rez_Airport,
5800,SAOR,medium_airport,Villa Reynolds Airport,-33.72990036,-65.38739777,1591,SA,AR,AR-D,Villa Mercedes,no,SAOR,VME,RYD,,https://en.wikipedia.org/wiki/Villa_Reynolds_Airport,Pringles
5801,SAOS,small_airport,Valle Del Conlara International Airport,-32.384701,-65.186501,2021,SA,AR,AR-D,Merlo,no,SAOS,RLO,SRC,,https://en.wikipedia.org/wiki/Valle_del_Conlara_Airport,
5802,SAOU,medium_airport,Brigadier Mayor D Cesar Raul Ojeda Airport,-33.273201,-66.3564,2328,SA,AR,AR-D,San Luis,yes,SAOU,LUQ,UIS,,https://en.wikipedia.org/wiki/Brigadier_Mayor_C%C3%A9sar_Ra%C3%BAl_Ojeda_Airport,
318502,SAOV,medium_airport,Presidente Néstor Kirchner Regional Airport,-32.3201,-63.22663,670,SA,AR,AR-X,Villa Maria,yes,SAOV,,VMR,,https://es.wikipedia.org/wiki/Aeropuerto_Regional_Presidente_N%C3%A9stor_Kirchner,
5803,SARC,medium_airport,Corrientes Airport,-27.4455,-58.7619,202,SA,AR,AR-W,Corrientes,yes,SARC,CNQ,CRR,,https://en.wikipedia.org/wiki/Doctor_Fernando_Piragine_Niveyro_International_Airport,
41556,SARD,closed,Resistencia (City) Airport,-27.46570015,-58.97900009,175,SA,AR,AR-H,Resistencia,no,,,,,,"SARD, SARD"
5804,SARE,medium_airport,Resistencia International Airport,-27.45,-59.0561,173,SA,AR,AR-H,Resistencia,yes,SARE,RES,SIS,,https://en.wikipedia.org/wiki/Resistencia_International_Airport,
5805,SARF,medium_airport,Aeropuerto Nacional de Formosa,-26.2127,-58.2281,193,SA,AR,AR-P,Formosa,yes,SARF,FMA,FSA,,https://en.wikipedia.org/wiki/Formosa_International_Airport,
41557,SARG,small_airport,Caa Cati Airport,-27.75530052,-57.63299942,249,SA,AR,AR-W,General Paz,no,SARG,,CAC,,,
5806,SARI,medium_airport,Cataratas Del Iguazú International Airport,-25.737301,-54.4734,916,SA,AR,AR-N,Puerto Iguazu,yes,SARI,IGR,IGU,http://www.aa2000.com.ar/iguazu,https://en.wikipedia.org/wiki/Cataratas_del_Iguaz%C3%BA_International_Airport,Iguaçu
5807,SARL,medium_airport,Paso De Los Libres Airport,-29.6894,-57.1521,230,SA,AR,AR-W,Paso de los Libres,no,SARL,AOL,LIB,,https://en.wikipedia.org/wiki/Paso_de_los_Libres_Airport,
5808,SARM,medium_airport,Monte Caseros Airport,-30.2719,-57.6402,170,SA,AR,AR-W,Monte Caseros,no,SARM,MCS,MCS,,https://en.wikipedia.org/wiki/Monte_Caseros_Airport,
39071,SARO,closed,Ituzaingo Airport,-27.52610016,-56.63330078,62,SA,AR,AR-W,Ituzaingo,no,,,,,,"SARO, SARO, ITU"
5809,SARP,medium_airport,Libertador Gral D Jose De San Martin Airport,-27.3858,-55.9707,430,SA,AR,AR-N,Posadas,yes,SARP,PSS,POS,,https://en.wikipedia.org/wiki/Libertador_General_Jos%C3%A9_de_San_Mart%C3%ADn_Airport,
39072,SARV,small_airport,Villa Angela Airport,-27.5915,-60.6864,246,SA,AR,AR-H,Villa Angela,no,SARV,,VAN,,https://en.wikipedia.org/wiki/Villa_Angela_Airport,
5811,SASA,medium_airport,Martin Miguel De Guemes International Airport,-24.8560009,-65.48619843,4088,SA,AR,AR-A,Salta,yes,SASA,SLA,SAL,,https://en.wikipedia.org/wiki/Mart%C3%ADn_Miguel_de_G%C3%BCemes_Airport,
5812,SASJ,medium_airport,Gobernador Horacio Guzman International Airport,-24.392799,-65.097801,3019,SA,AR,AR-Y,San Salvador de Jujuy,yes,SASJ,JUJ,JUJ,,https://en.wikipedia.org/wiki/Gobernador_Horacio_Guzm%C3%A1n_International_Airport,
41558,SASL,small_airport,Salar De Cauchari Airport,-24.01919937,-66.79720306,13000,SA,AR,AR-Y,Salar de Cauchari,no,SASL,,SDC,,,
5813,SASO,medium_airport,Orán Airport,-23.1528,-64.329201,1171,SA,AR,AR-A,Orán,no,SASO,ORA,ORA,,https://en.wikipedia.org/wiki/Or%C3%A1n_Airport,
5814,SASQ,small_airport,Laboulaye Airport,-34.135399,-63.362301,449,SA,AR,AR-X,Laboulaye,no,SAOL,,LYE,,https://en.wikipedia.org/wiki/Laboulaye_Airport,
41545,SASR,small_airport,Rivadavia Airport,-24.18860054,-62.88339996,679,SA,AR,AR-A,Rivadavia,no,SASR,,RIV,,,
5815,SAST,medium_airport,General Enrique Mosconi Airport,-22.6196,-63.793701,1472,SA,AR,AR-A,Tartagal,yes,SAST,TTG,TAR,,,
29791,SATC,small_airport,Aeródromo de Clorinda,-25.3036,-57.7344,206,SA,AR,AR-P,Clorinda,no,SATC,CLX,CLO,,https://en.wikipedia.org/wiki/Clorinda_Airport,
5816,SATD,small_airport,El Dorado Airport,-26.397499,-54.574699,685,SA,AR,AR-N,El Dorado,no,SATD,ELO,ELD,,https://en.wikipedia.org/wiki/El_Dorado_Airport_(Argentina),
5817,SATG,medium_airport,Goya Airport,-29.1058,-59.2189,128,SA,AR,AR-W,Goya,no,SATG,OYA,GOY,,https://en.wikipedia.org/wiki/Goya_Airport,
41559,SATI,small_airport,Bernardo De Irigoyen Airport,-26.281388,-53.673332,2673,SA,AR,AR-N,Bernardo de Irigoyen,no,SATI,,IRI,,https://en.wikipedia.org/wiki/Bernardo_de_Irigoyen_Airport,IRA
31832,SATK,small_airport,Alferez Armando Rodriguez Airport,-24.721399,-60.548801,426,SA,AR,AR-P,Las Lomitas,no,SATK,LLS,ITA,,https://en.wikipedia.org/wiki/Alf%C3%A9rez_Armando_Rodr%C3%ADguez_Airport,
30131,SATM,small_airport,Mercedes Airport,-29.221399,-58.087799,358,SA,AR,AR-W,Mercedes,no,SATM,MDX,RCE,,https://en.wikipedia.org/wiki/Mercedes_Airport,
5818,SATO,small_airport,Oberá Airport,-27.5182,-55.124199,1125,SA,AR,AR-N,Oberá,no,SATO,,OBE,,https://en.wikipedia.org/wiki/Ober%C3%A1_Airport,
5819,SATR,medium_airport,Reconquista Airport,-29.2103,-59.68,160,SA,AR,AR-S,Reconquista,no,SATR,RCQ,RTA,,https://en.wikipedia.org/wiki/Reconquista_Airport,
5820,SATU,medium_airport,Curuzu Cuatia Airport,-29.7706,-57.9789,229,SA,AR,AR-W,Curuzu Cuatia,no,SATU,UZU,CCA,,https://en.wikipedia.org/wiki/Curuz%C3%BA_Cuati%C3%A1_Airport,
39073,SAVA,small_airport,Piedra Del Aguila Airport,-40.19219971,-70.01000214,2128,SA,AR,AR-Q,Piedra del Aguila,no,SAVA,,AGI,,,
5821,SAVB,medium_airport,El Bolson Airport,-41.943199,-71.532303,1141,SA,AR,AR-R,El Bolson,no,SAVB,EHL,BOL,,https://en.wikipedia.org/wiki/El_Bols%C3%B3n_Airport,
5822,SAVC,medium_airport,General E. Mosconi Airport,-45.7853,-67.4655,189,SA,AR,AR-U,Comodoro Rivadavia,yes,SAVC,CRD,CRV,,https://en.wikipedia.org/wiki/General_Enrique_Mosconi_International_Airport,
29847,SAVD,small_airport,El Maiten Airport,-42.029202,-71.172501,2355,SA,AR,AR-U,El Maiten,no,SAVD,EMX,EMA,,https://en.wikipedia.org/wiki/El_Mait%C3%A9n_Airport,
5823,SAVE,medium_airport,Brigadier Antonio Parodi Airport,-42.90800095,-71.13950348,2621,SA,AR,AR-U,Esquel,yes,SAVE,EQS,ESQ,,http://es.wikipedia.org/wiki/Aeropuerto_Brigadier_General_Antonio_Parodi,
5824,SAVH,medium_airport,Las Heras Airport,-46.538517,-68.965323,1082,SA,AR,AR-Z,Las Heras,yes,SAVH,LHS,CLH,,https://en.wikipedia.org/wiki/Colonia_Las_Heras_Airport,
5825,SAVJ,small_airport,Ingeniero Jacobacci - Captain H R Bordón Airport,-41.3209,-69.574898,2925,SA,AR,AR-R,Ingeniero Jacobacci,no,SAVJ,IGB,IJC,,https://en.wikipedia.org/wiki/Ingeniero_Jacobacci_Airport,
39074,SAVM,small_airport,Lago Musters Airport,-45.5752,-69.077,889,SA,AR,AR-U,Sarmiento,no,SAVM,OLN,LGM,,https://en.wikipedia.org/wiki/Lago_Musters_Airport,
5826,SAVN,small_airport,Antoine de Saint Exupéry Airport,-40.7512,-65.0343,85,SA,AR,AR-R,San Antonio Oeste,yes,SAVN,OES,SAN,,https://en.wikipedia.org/wiki/Antoine_de_Saint_Exupéry_Airport,
35411,SAVO,small_airport,San Pedro Airport,-33.704077,-59.725788,88,SA,AR,AR-B,San Pedro,no,,,PED,,https://es.wikipedia.org/wiki/Aeroclub_San_Pedro,
39075,SAVP,small_airport,Paso De Los Indios Airport,-43.86669922,-69.05000305,575,SA,AR,AR-U,Paso de los Indios,no,SAVP,,IND,,,
30113,SAVQ,small_airport,Maquinchao Airport,-41.24309921,-68.70780182,2912,SA,AR,AR-R,Maquinchao,no,SAVQ,MQD,MAQ,,,
29656,SAVR,small_airport,D. Casimiro Szlapelis Airport,-45.013599,-70.812202,2286,SA,AR,AR-U,Alto Rio Senguerr,no,SAVR,ARR,ARS,,https://en.wikipedia.org/wiki/Alto_R%C3%ADo_Senguer_Airport,
30414,SAVS,small_airport,Sierra Grande Airport,-41.591702,-65.339401,688,SA,AR,AR-R,Sierra Grande,no,SAVS,SGV,SGR,,https://en.wikipedia.org/wiki/Sierra_Grande_Airport,
5827,SAVT,medium_airport,Almirante Marco Andres Zar Airport,-43.2105,-65.2703,141,SA,AR,AR-U,Rawson,yes,SAVT,REL,TRE,,https://en.wikipedia.org/wiki/Almirante_Marco_Andr%C3%A9s_Zar_Airport,Trelew Airport
5828,SAVV,medium_airport,Gobernador Castello Airport,-40.8692,-63.0004,20,SA,AR,AR-R,Viedma / Carmen de Patagones,yes,SAVV,VDM,VIE,,https://en.wikipedia.org/wiki/Gobernador_Edgardo_Castello_Airport,
5829,SAVY,medium_airport,El Tehuelche Airport,-42.7592,-65.1027,427,SA,AR,AR-U,Puerto Madryn,yes,SAVY,PMY,DRY,,https://en.wikipedia.org/wiki/El_Tehuelche_Airport,
30057,SAWA,closed,Lago Argentino Airport,-50.336102,-72.248596,732,SA,AR,AR-Z,El Calafate,yes,,,,,,"SAWA, SAWA, ING"
5831,SAWC,medium_airport,El Calafate - Commander Armando Tola International Airport,-50.2803,-72.053101,669,SA,AR,AR-Z,El Calafate,yes,SAWC,FTE,ECA,http://www.aeropuertoelcalafate.com/en/,https://en.wikipedia.org/wiki/Comandante_Armando_Tola_International_Airport,
5832,SAWD,medium_airport,Puerto Deseado Airport,-47.7353,-65.9041,268,SA,AR,AR-Z,Puerto Deseado,yes,SAWD,PUD,ADO,,https://en.wikipedia.org/wiki/Puerto_Deseado_Airport,
5833,SAWE,medium_airport,Gobernador Ramón Trejo Noel International Airport,-53.7777,-67.7494,65,SA,AR,AR-V,Rio Grande,yes,SAWE,RGA,GRA,,https://en.wikipedia.org/wiki/Hermes_Quijada_Airport,Hermes Quijada
5834,SAWG,medium_airport,Piloto Civil N. Fernández Airport,-51.6089,-69.3126,61,SA,AR,AR-Z,Rio Gallegos,yes,SAWG,RGL,GAL,,https://en.wikipedia.org/wiki/Piloto_Civil_Norberto_Fern%C3%A1ndez_International_Airport,Brigadier General D. A. Parodi
5835,SAWH,medium_airport,Malvinas Argentinas Airport,-54.8433,-68.2958,102,SA,AR,AR-V,Ushuaia,yes,SAWH,USH,USU,,https://en.wikipedia.org/wiki/Ushuaia_International_Airport,
5836,SAWJ,medium_airport,Capitan D Daniel Vazquez Airport,-49.306816,-67.802596,203,SA,AR,AR-Z,San Julian,yes,SAWJ,ULA,SJU,,https://en.wikipedia.org/wiki/Capit%C3%A1n_Jos%C3%A9_Daniel_Vazquez_Airport,
41560,SAWL,small_airport,Tolhuin Lago Fagnano Airport,-54.499596,-67.172084,90,SA,AR,AR-V,Tolhuin,no,SAWL,,TOL,,https://en.wikipedia.org/wiki/Tolhuin_Lago_Fagnano_Airport,
30341,SAWM,small_airport,Rio Mayo Airport,-45.703899,-70.245598,1784,SA,AR,AR-U,Rio Mayo,no,SAWM,ROY,RMY,,https://en.wikipedia.org/wiki/R%C3%ADo_Mayo_Airport,
5838,SAWP,medium_airport,Perito Moreno Airport,-46.537899,-70.978699,1410,SA,AR,AR-Z,Perito Moreno,yes,SAWP,PMQ,PTM,,https://en.wikipedia.org/wiki/Perito_Moreno_Airport,
29898,SAWR,small_airport,Gobernador Gregores Airport,-48.7831,-70.150002,356,SA,AR,AR-Z,Gobernador Gregores,yes,SAWR,GGS,GRE,,https://en.wikipedia.org/wiki/Gobernador_Gregores_Airport,
29997,SAWS,small_airport,Jose De San Martin Airport,-44.04859924,-70.45890045,2407,SA,AR,AR-U,Chubut,no,SAWS,JSM,JSM,,,
29849,SAWT,small_airport,28 de Noviembre Airport,-51.605,-72.2203,909,SA,AR,AR-Z,Rio Turbio,yes,SAWT,RYO,BIO,,https://en.wikipedia.org/wiki/Rio_Turbio_Airport,El Turbio
5839,SAWU,medium_airport,Santa Cruz Airport,-50.0165,-68.5792,364,SA,AR,AR-Z,Puerto Santa Cruz,yes,SAWU,RZA,SCZ,,https://en.wikipedia.org/wiki/Santa_Cruz_Airport_(Argentina),
29676,SAZA,small_airport,Azul Airport,-36.836899,-59.880299,478,SA,AR,AR-B,Azul,no,SAZA,,ZUL,,https://en.wikipedia.org/wiki/Azul_Airport,
5840,SAZB,medium_airport,Comandante Espora Airport,-38.725,-62.1693,246,SA,AR,AR-B,Bahia Blanca,yes,SAZB,BHI,BCA,https://www.aeropuertobahiablanca.com/,https://en.wikipedia.org/wiki/Comandante_Espora_Airport,Bahía Blanca Airport
5841,SAZC,small_airport,Brigadier D.H.E. Ruiz Airport,-37.446098,-61.889301,767,SA,AR,AR-B,Coronel Suarez,no,SAZC,CSZ,SUZ,,https://en.wikipedia.org/wiki/Brigadier_Hector_Eduardo_Ruiz_Airport,
32248,SAZD,small_airport,Dolores Airport,-36.3225,-57.7214,32,SA,AR,AR-B,Dolores,no,SAZD,,DOL,,https://en.wikipedia.org/wiki/Dolores_Airport_(Argentina),
30260,SAZE,small_airport,Pigüé Airport,-37.607098,-62.382641,997,SA,AR,AR-B,Pigüé,no,SAZE,,PIG,,https://en.wikipedia.org/wiki/Pig%C3%BC%C3%A9_Airport,
5842,SAZF,small_airport,Olavarria Airport,-36.889999,-60.216599,551,SA,AR,AR-B,Olavarria,no,SAZF,OVR,OLA,,https://en.wikipedia.org/wiki/Olavarr%C3%ADa_Airport,
5843,SAZG,medium_airport,General Pico Airport,-35.696201,-63.758301,459,SA,AR,AR-L,General Pico,no,SAZG,GPO,GPI,,https://en.wikipedia.org/wiki/General_Pico_Airport,
5844,SAZH,medium_airport,Tres Arroyos Airport,-38.3869,-60.3297,400,SA,AR,AR-B,Tres Arroyos,no,SAZH,OYO,YOS,,https://en.wikipedia.org/wiki/Tres_Arroyos_Airport,
5845,SAZI,small_airport,Bolívar Airport,-36.1866,-61.0764,308,SA,AR,AR-B,Bolívar,no,SAZI,,BLR,,https://en.wikipedia.org/wiki/Bol%C3%ADvar_Airport,
29998,SAZJ,small_airport,Benito Juarez Airport,-37.7061,-59.791901,682,SA,AR,AR-B,Benito Juarez,no,SAZJ,,JRZ,,https://en.wikipedia.org/wiki/Benito_Ju%C3%A1rez_Airport_(Argentina),
41562,SAZK,small_airport,Cerro Catedral Airport,-41.1633,-71.442703,3450,SA,AR,AR-R,Cerro Catedral,no,SAZK,,CDM,,https://en.wikipedia.org/wiki/Cerro_Catedral_Heliport,
5846,SAZL,medium_airport,Santa Teresita Airport,-36.5423,-56.7218,9,SA,AR,AR-B,Santa Teresita,yes,SAZL,SST,STR,,https://en.wikipedia.org/wiki/Santa_Teresita_Airport,
5847,SAZM,medium_airport,Ástor Piazzola International Airport,-37.9342,-57.5733,72,SA,AR,AR-B,Mar del Plata,yes,SAZM,MDQ,MDP,,https://en.wikipedia.org/wiki/%C3%81stor_Piazzola_International_Airport,Brigadier General Bartolome De La Colina International Airport
5848,SAZN,medium_airport,Presidente Peron Airport,-38.949001,-68.155701,895,SA,AR,AR-Q,Neuquen,yes,SAZN,NQN,NEU,,https://en.wikipedia.org/wiki/Presidente_Per%C3%B3n_International_Airport,
5849,SAZO,medium_airport,Necochea Airport,-38.490746,-58.816337,72,SA,AR,AR-B,Necochea,yes,SAZO,NEC,NEC,,https://en.wikipedia.org/wiki/Necochea_Airport,
5850,SAZP,medium_airport,Comodoro Pedro Zanni Airport,-35.8446,-61.8576,278,SA,AR,AR-B,Pehuajó,no,SAZP,PEH,PEH,,https://en.wikipedia.org/wiki/Comodoro_P._Zanni_Airport,
30339,SAZQ,small_airport,Rio Colorado Airport,-38.995,-64.1408,275,SA,AR,AR-R,Rio Colorado,no,SAZQ,,COL,,https://en.wikipedia.org/wiki/R%C3%ADo_Colorado_Airport,
5851,SAZR,medium_airport,Santa Rosa Airport,-36.588299,-64.275703,630,SA,AR,AR-L,Santa Rosa,yes,SAZR,RSA,OSA,,https://en.wikipedia.org/wiki/Santa_Rosa_Airport_(Argentina),
5852,SAZS,medium_airport,San Carlos De Bariloche Airport,-41.151199,-71.157501,2774,SA,AR,AR-R,San Carlos de Bariloche,yes,SAZS,BRC,BAR,http://www.aa2000.com.ar/bariloche,https://en.wikipedia.org/wiki/San_Carlos_de_Bariloche_Airport,
5853,SAZT,medium_airport,Héroes De Malvinas Airport,-37.234634,-59.228647,574,SA,AR,AR-B,Tandil,no,SAZT,TDL,DIL,,https://en.wikipedia.org/wiki/Tandil_Airport,
39081,SAZU,small_airport,Puelches Airport,-38.145103,-65.922943,180,SA,AR,AR-L,Puelches,no,SAZU,,PUE,,https://en.wikipedia.org/wiki/Puelches_Airport,
5854,SAZV,medium_airport,Villa Gesell Airport,-37.2354,-57.0292,32,SA,AR,AR-B,Villa Gesell,no,SAZV,VLG,GES,,https://en.wikipedia.org/wiki/Villa_Gesell_Airport,
5855,SAZW,medium_airport,Cutral-Co Airport,-38.939701,-69.264603,2132,SA,AR,AR-Q,Cutral-Co,no,SAZW,CUT,CUT,,https://en.wikipedia.org/wiki/Cutral_C%C3%B3_Airport,
30202,SAZX,small_airport,Nueve de Julio Airport,-35.3997,-60.9358,246,SA,AR,AR-B,Nueve de Julio,no,SAZX,,LIO,,https://en.wikipedia.org/wiki/Nueve_de_Julio_Airport,
5856,SAZY,medium_airport,Aviador C. Campos Airport,-40.075401,-71.137299,2569,SA,AR,AR-Q,Chapelco/San Martin de los Andes,yes,SAZY,CPC,CHP,,https://en.wikipedia.org/wiki/Aviador_Carlos_Campos_Airport,
342657,SCDV,small_airport,Lago Viedma Airstrip,-49.410757,-72.780266,903,SA,AR,AR-Z,El Chaltén,no,,,,,,